,accuracy,formatted_address,google_place_id,input_string,latitude,longitude,number_of_results,postcode,status,type
0,ROOFTOP,"30 Brewsters Rd, Yinnar South VIC 3869, Australia",ChIJ8WojmAJyKWsRXxWp7hcAa4I,"Yinnar South Primary School VIC,Australia",-38.3695962,146.3644361,1,3869,OK,"establishment,point_of_interest,school"
1,ROOFTOP,"30 Main St, Yinnar VIC 3869, Australia",ChIJVa0oGKhzKWsRKHizCdImU-Y,"Yinnar Primary School VIC,Australia",-38.32127,146.3288308,1,3869,OK,"establishment,point_of_interest,school"
2,ROOFTOP,"1936 Healesville - Koo Wee Rup Rd, Yellingbo VIC 3139, Australia",ChIJudNApT7WKWsRaIkqt1sbU4I,"Yellingbo Primary School VIC,Australia",-37.812729,145.508086,1,3139,OK,"establishment,point_of_interest,school"
3,ROOFTOP,"23 Station St, Yea VIC 3717, Australia",ChIJY0P-jev812oRCpLqfCfUTFU,"Yea Primary School VIC,Australia",-37.2131736,145.4280907,1,3717,OK,"establishment,point_of_interest,school"
4,ROOFTOP,"30 Powell St, Yarraville VIC 3013, Australia",ChIJoTbB70Vn1moRqa04mVvlKIk,"Yarraville West Primary School VIC,Australia",-37.8148373,144.8851424,1,3013,OK,"establishment,point_of_interest,school"
5,ROOFTOP,"540 Yan Yean Rd, Yarrambat VIC 3091, Australia",ChIJZzG4bHRK1moR1un6ymBfo-E,"Yarrambat Primary School VIC,Australia",-37.6409104,145.1333771,1,3091,OK,"establishment,point_of_interest,school"
6,ROOFTOP,"Hepburn Primary School, 156 Main Rd, Hepburn VIC 3461, Australia",ChIJKzRjE2PU1moR013UZC2GFeI,"Yandoit Primary School VIC,Australia",-37.3097352,144.1329817,3,3461,OK,street_address
7,GEOMETRIC_CENTER,"McKenzie Cres, Wycheproof VIC 3527, Australia",ChIJ6xIU24-N2moR3iwGrnXOigI,"Wycheproof P-12 College VIC,Australia",-36.075226,143.2282515,1,3527,OK,"establishment,point_of_interest,school"
8,GEOMETRIC_CENTER,"Barkhurst St, Wunghnu VIC 3635, Australia",ChIJd9lLzbih2GoRi12xfRVcBRY,"Wunghnu Primary School VIC,Australia",-36.150281,145.4302026,1,3635,OK,"establishment,point_of_interest,school"
9,ROOFTOP,"Woomelang Group School, 2 Roberts St, Woomelang VIC 3485, Australia",ChIJmbtYrIUyxWoR8OVB63Yv254,"Woomelang Group School VIC,Australia",-35.6819941,142.667313,1,3485,OK,street_address
10,ROOFTOP,"12 Manifold St, Woolsthorpe VIC 3276, Australia",ChIJxfdn4rNGzWoRmBJG-eq4Ahs,"Woolsthorpe Primary School VIC,Australia",-38.1874429,142.4314337,1,3276,OK,"establishment,point_of_interest,school"
11,ROOFTOP,"10 Gum Nut Dr, Langwarrin VIC 3910, Australia",ChIJTyZOywoM1moRH9wdcxyujws,"Woodlands Primary School VIC,Australia",-38.135271,145.203857,1,3910,OK,"establishment,point_of_interest,school"
12,GEOMETRIC_CENTER,"Tantaraboo Rd, Kilmore VIC 3764, Australia",ChIJx3VNdaOj12oRtBQ7twbul14,"Willowmavin Primary School VIC,Australia",-37.2591708,144.8884229,1,3764,OK,"establishment,point_of_interest,school"
13,ROOFTOP,"115 Cecil St, Williamstown VIC 3016, Australia",ChIJGXSlcOtm1moRdoPjw1FzaQE,"Williamstown Primary School VIC,Australia",-37.8640681,144.8997894,1,3016,OK,"establishment,point_of_interest,school"
14,ROOFTOP,"60 Merrilands Rd, Reservoir VIC 3073, Australia",ChIJxZUxzX9F1moRbmSTSKYEt-Y,"William Ruthven Primary School VIC,Australia",-37.6956166,145.0024376,1,3073,OK,"establishment,point_of_interest,school"
15,ROOFTOP,"18 Church St, Whorouly VIC 3735, Australia",ChIJv1Agi5-_JmsRkgjls_QAVmo,"Whorouly Primary School VIC,Australia",-36.5056553,146.5864932,2,3735,OK,"establishment,point_of_interest,school"
16,ROOFTOP,"2435 Plenty Rd, Whittlesea VIC 3757, Australia",ChIJTxRUnMG112oR_92kl2y5Vts,"Whittlesea Primary School VIC,Australia",-37.5149159,145.1142877,1,3757,OK,"establishment,point_of_interest,school"
17,ROOFTOP,"Whitfield Primary School, 6182 Mansfield-Whitfield Rd, Whitfield VIC 3733, Australia",ChIJKZDWSbv3JmsRzYDRbuXsuU8,"Whitfield District Primary School VIC,Australia",-36.765871,146.4123873,1,3733,OK,street_address
18,ROOFTOP,"70-86 Junction Rd, Blackburn North VIC 3130, Australia",ChIJwf-XT8I41moRdiNG5FptvDM,"Whitehorse Primary School VIC,Australia",-37.807888,145.1672033,1,3130,OK,"establishment,point_of_interest,school"
19,ROOFTOP,"16 Plumridge St, White Hills VIC 3550, Australia",ChIJDyN96vVY12oRYcqBr2u3TQ0,"White Hills Primary School VIC,Australia",-36.7274025,144.3040258,1,3550,OK,"establishment,point_of_interest,school"
20,ROOFTOP,"134-148 Whites Ln, Wheelers Hill VIC 3150, Australia",ChIJpTVgZNQ_1moRTwaGe8WQnGI,"Wheelers Hill Primary School VIC,Australia",-37.9003968,145.1780801,1,3150,OK,"establishment,point_of_interest,school"
21,ROOFTOP,"34-46 Riddell St, Westmeadows VIC 3049, Australia",ChIJbcxKlD1a1moRo4TcT4z1MGw,"Westmeadows Primary School VIC,Australia",-37.676201,144.896059,1,3049,OK,"establishment,point_of_interest,school"
22,ROOFTOP,"2-10 Pascoe St, Pascoe Vale VIC 3044, Australia",ChIJt06HCxlb1moR6rFsxgBJIJU,"Westbreen Primary School VIC,Australia",-37.7159685,144.9358315,1,3044,OK,"establishment,point_of_interest,school"
23,ROOFTOP,"22 Fairbank Rd, Clayton South VIC 3169, Australia",ChIJkWv6sDdr1moR_dMNnxbR09I,"Westall Primary School VIC,Australia",-37.941888,145.1365293,1,3169,OK,"establishment,point_of_interest,school"
24,ROOFTOP,"383 Napier St, White Hills VIC 3550, Australia",ChIJ386NnVRY12oRnESR9vaKQc4,"Weeroona College Bendigo VIC,Australia",-36.738644,144.297573,1,3550,OK,"establishment,point_of_interest,university"
25,GEOMETRIC_CENTER,"Cambrian Way, West Melton. VIC 3337, Australia",ChIJQfXw89zs1moR7GcHeboIUD8,"Wedge Park Primary School VIC,Australia",-37.6758874,144.5547313,1,3337,OK,"establishment,point_of_interest,school"
26,ROOFTOP,"225 Warrigal Rd, Burwood VIC 3125, Australia",ChIJkfsrolNA1moRv4DiSfM8xP0,"Wattle Park Primary School VIC,Australia",-37.8426999,145.0981243,1,3125,OK,"establishment,point_of_interest,school"
27,ROOFTOP,"240 Nell St, Watsonia VIC 3087, Australia",ChIJWejAT4xI1moRMX0dYSs8mnw,"Watsonia Primary School VIC,Australia",-37.7068969,145.0868998,1,3087,OK,"establishment,point_of_interest,school"
28,GEOMETRIC_CENTER,"47-49 Phillipson St, Wangaratta VIC 3676, Australia",ChIJEf4oVc7bJmsR1T4IMrKiWfo,"Wangaratta West Primary School VIC,Australia",-36.3541217,146.304447,1,3676,OK,"establishment,point_of_interest,school"
29,ROOFTOP,"19 Chisholm St, Wangaratta VIC 3677, Australia",ChIJPfyke6XbJmsRtFeRpUw-LLU,"Wangaratta Primary School VIC,Australia",-36.3552677,146.3287568,1,3677,OK,"establishment,point_of_interest,school"
30,ROOFTOP,"119 School Rd, Wandiligong VIC 3744, Australia",ChIJS7GZ2esmJGsRDCQj0QKkdUk,"Wandiligong Primary School VIC,Australia",-36.7691679,146.9830133,1,3744,OK,"establishment,point_of_interest,school"
31,ROOFTOP,"38-64 Wallarano Dr, Noble Park VIC 3174, Australia",ChIJf1l4TGMT1moRx_0jvMhY9JE,"Wallarano Primary School VIC,Australia",-37.9797476,145.1702437,1,3174,OK,"establishment,point_of_interest,school"
32,ROOFTOP,"Wales St Primary School, 49 Wales St, Thornbury VIC 3071, Australia",ChIJG3JfC2NE1moRIyMok-2-L5Q,"Wales Street Primary School VIC,Australia",-37.7618012,145.0085537,1,3071,OK,"establishment,point_of_interest,school"
33,ROOFTOP,"Undera Primary School, 45-55 Anderson St, Undera VIC 3629, Australia",ChIJEQ-QSdyN2GoRGE7OvUsHOJM,"Undera Primary School VIC,Australia",-36.2761332,145.2188884,1,3629,OK,street_address
34,GEOMETRIC_CENTER,"Broadmeadows Rd, Tullamarine VIC 3043, Australia",ChIJizI279tb1moRmYbYrhsz0pY,"Tullamarine Primary School VIC,Australia",-37.7021639,144.8789719,1,3043,OK,"establishment,point_of_interest,school"
35,ROOFTOP,"16 Tucker Rd, Bentleigh VIC 3204, Australia",ChIJaRl0l-Jr1moRfOaoCrHjf6Q,"Tucker Road Bentleigh Primary School VIC,Australia",-37.9323391,145.0493776,1,3204,OK,"establishment,point_of_interest,school"
36,ROOFTOP,"30-44 Grey St, Traralgon VIC 3844, Australia",ChIJt7TY2CIYKWsRF_vm4APyo00,"Traralgon (Grey Street) Primary School  VIC,Australia",-38.1927424,146.5368301,1,3844,OK,"establishment,point_of_interest,school"
37,ROOFTOP,"75 Bayview Rd, Tooradin VIC 3980, Australia",ChIJfyQ05JYG1moRa6f2ug--Drs,"Tooradin Primary School VIC,Australia",-38.2078878,145.3788701,1,3980,OK,"establishment,point_of_interest,school"
38,ROOFTOP,"69-77 Wren St, Toolamba VIC 3614, Australia",ChIJr2tpJed82GoRSUWwX9XfEeI,"Toolamba Primary School VIC,Australia",-36.4907183,145.3446609,1,3614,OK,"establishment,point_of_interest,school"
39,GEOMETRIC_CENTER,"Thomas Mitchell Dr, Endeavour Hills VIC 3802, Australia",ChIJLe3mrwMX1moRH7AAPYePerk,"Thomas Mitchell Primary School VIC,Australia",-37.9801562,145.2738858,1,3802,OK,"establishment,point_of_interest,school"
40,GEOMETRIC_CENTER,"Callistemon Dr, Hoppers Crossing VIC 3029, Australia",ChIJBxMO4RWP1moRs-o4K4I75PY,"The Grange P-12 College VIC,Australia",-37.8586824,144.6790299,1,3029,OK,"establishment,point_of_interest,school,university"
41,GEOMETRIC_CENTER,"Crestdale Rd & Birchfield Crescent, Wantirna VIC 3152, Australia",ChIJnYW8Dxw81moRf2nYbz10DVA,"Templeton Primary School VIC,Australia",-37.8608513,145.2321192,1,3152,OK,"establishment,point_of_interest,school"
42,ROOFTOP,"15 Birchwood Ave, Templestowe Lower VIC 3107, Australia",ChIJuUSrnqRH1moR4leHEdAWOfk,"Templestowe Valley Primary School VIC,Australia",-37.7600504,145.1098607,1,3107,OK,"establishment,point_of_interest,school"
43,GEOMETRIC_CENTER,"High St, Templestowe Heights VIC 3107, Australia",ChIJE2ccQZlH1moRzPsqNSm3psI,"Templestowe Heights Primary School VIC,Australia",-37.766487,145.11984,1,3107,OK,"establishment,point_of_interest,school"
44,ROOFTOP,"40-50 Loddon Dr, Taylors Hill VIC 3037, Australia",ChIJ_4NEL6P11moRMfwNI8slFyQ,"Taylors Hill Primary School VIC,Australia",-37.7168682,144.7598647,1,3037,OK,"establishment,point_of_interest,school"
45,ROOFTOP,"33 Service St, Tatura VIC 3616, Australia",ChIJv_DBRCli2GoRXiYKycSnY8I,"Tatura Primary School VIC,Australia",-36.444046,145.229684,1,3616,OK,"establishment,point_of_interest,school"
46,ROOFTOP,"98 High St, Taradale VIC 3447, Australia",ChIJ6_f-voM812oRhOcuZ-x1QzI,"Taradale Primary School VIC,Australia",-37.140726,144.3506301,1,3447,OK,"establishment,point_of_interest,school"
47,ROOFTOP,"24/34 Victoria Rd, Tallygaroopna VIC 3634, Australia",ChIJc5nW3o-e2GoRvZPriGUTcb8,"Tallygaroopna Primary School VIC,Australia",-36.2388322,145.4371617,1,3634,OK,"establishment,point_of_interest,school"
48,ROOFTOP,"2 Beatrice Ave, Surrey Hills VIC 3127, Australia",ChIJH3wvl-ZA1moR96SX3c1yvp0,"Surrey Hills Primary School VIC,Australia",-37.8253406,145.1014299,2,3127,OK,"establishment,point_of_interest,school"
49,ROOFTOP,"234 Yallambie Rd, Yallambie VIC 3085, Australia",ChIJT-n1VYdI1moR1Qr1xldcxvg,"Streeton Primary School VIC,Australia",-37.721649,145.10148,1,3085,OK,"establishment,point_of_interest,school"
50,ROOFTOP,"14-34 LIoyd Street, Strathmore VIC 3041, Australia",ChIJuZQcJ4Jb1moRZtXPvb7e5ug,"Strathmore Primary School VIC,Australia",-37.7352548,144.917024,1,3041,OK,"establishment,point_of_interest,school"
51,ROOFTOP,"52 Kings Rd, St Albans VIC 3021, Australia",ChIJz8CbIHz11moRavYbM6klZtw,"Stevensville Primary School VIC,Australia",-37.7363807,144.7813753,1,3021,OK,"establishment,point_of_interest,school"
52,GEOMETRIC_CENTER,"Cooper St, Stawell VIC 3380, Australia",ChIJcVOeUaLg0WoRbZ2HMAcaYTA,"Stawell West Primary School VIC,Australia",-37.0655276,142.7715824,1,3380,OK,"establishment,point_of_interest,school"
53,ROOFTOP,"68 Fitzroy St, St Kilda VIC 3182, Australia",ChIJxYA2iWto1moRcKAf81vEw9A,"St Kilda Park Primary SchoolVIC,Australia",-37.8579139,144.9775333,1,3182,OK,"establishment,point_of_interest,school"
54,GEOMETRIC_CENTER,"Charlton Rd, St Arnaud VIC 3478, Australia",ChIJhdklkqpn0GoRXGYTBAKDcX4,"St Arnaud Primary School VIC,Australia",-36.6104456,143.2572992,1,3478,OK,"establishment,point_of_interest,school"
55,ROOFTOP,"2a Laurel St, St Albans VIC 3021, Australia",ChIJ4XK3DbBf1moRzPVl0Op70pU,"St Albans Meadows Primary School VIC,Australia",-37.7529001,144.8177869,1,3021,OK,"establishment,point_of_interest,school"
56,ROOFTOP,"193 Spensley St, Clifton Hill VIC 3068, Australia",ChIJQYkic3VD1moR6fG4_58JKDQ,"Spensley Street Primary School VIC,Australia",-37.7867925,145.0035893,1,3068,OK,"establishment,point_of_interest,school"
57,GEOMETRIC_CENTER,"Inglewood St, Golden Square VIC 3555, Australia",ChIJGSh88lJX12oRPYoxH1XIubs,"Specimen Hill Primary School VIC,Australia",-36.7615239,144.2481487,1,3555,OK,"establishment,point_of_interest,school"
58,GEOMETRIC_CENTER,"Montgomery St, Skipton VIC 3361, Australia",ChIJUyNznBst0moRT7sjKuB5p5E,"Skipton Primary School VIC,Australia",-37.6867118,143.3680156,1,3361,OK,"establishment,point_of_interest,school"
59,ROOFTOP,"Simpson Primary School, 1 Princetown Rd, Simpson VIC 3266, Australia",ChIJ0Ti7XNDE0moRwzBRa5PgwsU,"Simpson Primary School VIC,Australia",-38.4990453,143.2090188,1,3266,OK,street_address
60,ROOFTOP,"77-123 Jacksons Rd, Noble Park North VIC 3174, Australia",ChIJSYZ9p00U1moRSqKtxGDyVzc,"Silverton Primary School VIC,Australia",-37.948838,145.193031,1,3174,OK,"establishment,point_of_interest,school"
61,ROOFTOP,"311 Mount Dandenong Tourist Rd, Sassafras VIC 3787, Australia",ChIJA-dkzPIk1moROFtptNTRhHk,"Sherbrooke Community School VIC,Australia",-37.867846,145.349311,1,3787,OK,"establishment,point_of_interest,school"
62,GEOMETRIC_CENTER,"15 School Road, Shepparton East VIC 3631, Australia",ChIJCSTmDhKC2GoRpgppI2_iMJY,"Shepparton East Primary School VIC,Australia",-36.4002339,145.4793572,1,3631,OK,"establishment,point_of_interest,school"
63,ROOFTOP,"84-90 Wilmot Rd, Shepparton VIC 3630, Australia",ChIJEa5S5VOB2GoRpvdL1-9W9TU,"Shepparton (Wilmot Road) Primary School  VIC,Australia",-36.3984105,145.4055839,1,3630,OK,"establishment,point_of_interest,school"
64,GEOMETRIC_CENTER,"Balaclava Rd & Bourchier Street, Shepparton VIC 3630, Australia",ChIJzd8SQIWD2GoRjM7haUC9mQs,"Shepparton (Bourchier Street) Primary School  VIC,Australia",-36.3675663,145.4132857,1,3630,OK,"establishment,point_of_interest,school"
65,ROOFTOP,"13 Tuckers Rd, Templestowe VIC 3106, Australia",ChIJ2SiuZ2k41moRUSGzqcCJBa4,"Serpell Primary School VIC,Australia",-37.7698457,145.1545889,1,3106,OK,"establishment,point_of_interest,school"
66,ROOFTOP,"15 Seaspray Rd, Seaspray VIC 3851, Australia",ChIJO0mK-dvbLmsRCXPcqsIjtfI,"Seaspray Primary School VIC,Australia",-38.3563235,147.1707702,1,3851,OK,"establishment,point_of_interest,school"
67,GEOMETRIC_CENTER,"Millers Rd & Civic Parade, Altona VIC 3018, Australia",ChIJr1Agbmxh1moRDgeEdTRm-dg,"Seaholme Primary School VIC,Australia",-37.8646752,144.8403946,1,3018,OK,"establishment,point_of_interest,school"
68,ROOFTOP,"81 Hallifax St, Seaford VIC 3198, Australia",ChIJOUqjcjRz1moRl2GzuNtafLo,"Seaford North Primary School VIC,Australia",-38.0896594,145.1342636,1,3198,OK,"establishment,point_of_interest,school"
69,ROOFTOP,"105 Point Cook Rd, Seabrook VIC 3028, Australia",ChIJuSKzrE6I1moRIMLC_X_MP3Q,"Seabrook Primary School VIC,Australia",-37.8791996,144.7584034,1,3028,OK,"establishment,point_of_interest,school"
70,ROOFTOP,"31 Bamfield St, Sandringham VIC 3191, Australia",ChIJA_ekp-Ju1moRIRO1BAvUfHc,"Sandringham Primary School VIC,Australia",-37.9471981,145.0089741,2,3191,OK,"establishment,point_of_interest,school"
71,ROOFTOP,"22 Dyer St, Rupanyup VIC 3388, Australia",ChIJQ_HK66fWz2oRBlm-ltsQTYE,"Rupanyup Primary School VIC,Australia",-36.6322538,142.6287956,1,3388,OK,"establishment,point_of_interest,school"
72,GEOMETRIC_CENTER,"Lockwood Dr, Roxburgh Park VIC 3064, Australia",ChIJ54sI46NR1moRbf1ooKVwU1s,"Roxburgh Rise Primary School VIC,Australia",-37.6161747,144.9227706,1,3064,OK,"establishment,point_of_interest,school"
73,ROOFTOP,"7/21 Almands Ave, Roxburgh Park VIC 3064, Australia",ChIJ7SHmtUxQ1moRJw3HL-oKOlw,"Roxburgh Park Primary School VIC,Australia",-37.6338651,144.9308736,1,3064,OK,"establishment,point_of_interest,school"
74,ROOFTOP,"33 McPherson Blvd, Roxburgh Park VIC 3064, Australia",ChIJGxgk6_hQ1moRm-x8jn_C8AE,"Roxburgh Homestead Primary School VIC,Australia",-37.632072,144.916242,1,3064,OK,"establishment,point_of_interest,school"
75,GEOMETRIC_CENTER,"Paratea Dr, Rowville VIC 3178, Australia",ChIJ1fWoqwIW1moRQh5_cawV2A0,"Rowville Primary School VIC,Australia",-37.92229,145.237666,1,3178,OK,"establishment,point_of_interest,school"
76,GEOMETRIC_CENTER,"Murray Rd, Dandenong North VIC 3175, Australia",ChIJS_07qtoV1moRqa6YnkZaXnM,"Rosewood Downs Primary School VIC,Australia",-37.9438842,145.2139572,1,3175,OK,"establishment,point_of_interest,school"
77,GEOMETRIC_CENTER,"Grandview Grove, Rosanna VIC 3084, Australia",ChIJr-Au7mxG1moRju5jAQCsczo,"Rosanna Primary School VIC,Australia",-37.7351731,145.063295,1,3084,OK,"establishment,point_of_interest,school"
78,ROOFTOP,"52 Landscape Dr, Mooroolbark VIC 3138, Australia",ChIJ-3xAyjIu1moROlGPGbRvrBI,"Rolling Hills Primary School VIC,Australia",-37.767244,145.326558,1,3138,OK,"establishment,point_of_interest,school"
79,GEOMETRIC_CENTER,"Aitchison St, Rokewood VIC 3330, Australia",ChIJ3ejRZRPC02oReBy5xwBnXcU,"Rokewood Primary School VIC,Australia",-37.903892,143.722682,1,3330,OK,"establishment,point_of_interest,school"
80,ROOFTOP,"63 Fordholm Rd, Hampton Park VIC 3976, Australia",ChIJf1aP9w8R1moRMxzXn259T_s,"River Gum Primary School VIC,Australia",-38.0340807,145.2613157,1,3976,OK,"establishment,point_of_interest,school"
81,GEOMETRIC_CENTER,"Carrington Grove, St Kilda East VIC 3183, Australia",ChIJedCqtFJo1moRxiZFBBqOzVg,"Ripponlea Primary School VIC,Australia",-37.8746566,145.0049094,1,3183,OK,"establishment,point_of_interest,school"
82,ROOFTOP,"Ripplebrook Primary School, 2260 Westernport Rd, Ripplebrook VIC 3818, Australia",ChIJ-dDJdoLuKWsR1wm1p4BL3oQ,"Ripplebrook Primary School VIC,Australia",-38.2035116,145.7575234,1,3818,OK,street_address
83,ROOFTOP,"25 Lennox St, Richmond VIC 3121, Australia",ChIJMUP3mfpC1moRD2nuHb5HDtU,"Richmond West Primary School VIC,Australia",-37.8135686,144.9958203,1,3121,OK,"establishment,point_of_interest,school"
84,ROOFTOP,"58 Boldrewood Parade, Reservoir VIC 3073, Australia",ChIJbREmfpZF1moRIcI1iYp-UoI,"Reservoir East Primary School VIC,Australia",-37.7203333,145.0228128,1,3073,OK,"establishment,point_of_interest,school"
85,ROOFTOP,"19 Nerrum Ave, Red Cliffs VIC 3496, Australia",ChIJ90iXr-APw2oR9laANrf4_LY,"Red Cliffs East Primary School VIC,Australia",-34.3050438,142.2148372,1,3496,OK,"establishment,point_of_interest,school"
86,GEOMETRIC_CENTER,"Raywood Primary School, 18-22 Sandhurst St, Raywood VIC 3570, Australia",ChIJMcvWymf62WoRSM-F0HOpG2Y,"Raywood Primary School VIC,Australia",-36.5393672,144.2050743,1,3570,OK,"establishment,point_of_interest,school"
87,ROOFTOP,"14/36 Lesdon Ave, Cranbourne VIC 3977, Australia",ChIJkQko4dUP1moRsMo5WVKUdB4,"Rangebank Primary School VIC,Australia",-38.0873496,145.2756421,1,3977,OK,"establishment,point_of_interest,school"
88,ROOFTOP,"25 Peel St, Quarry Hill VIC 3550, Australia",ChIJe6iKah9a12oRklRmb-GD_fk,"Quarry Hill Primary School VIC,Australia",-36.7752946,144.2799577,1,3550,OK,"establishment,point_of_interest,school"
89,ROOFTOP,"13 Charlton Rd, Quambatook VIC 3540, Australia",ChIJa7G9yAJT2moRHxqDBGj9UWs,"Quambatook Group School VIC,Australia",-35.855652,143.518673,1,3540,OK,"establishment,point_of_interest,school"
90,ROOFTOP,"280 Pigdon St, Princes Hill VIC 3054, Australia",ChIJwVzIvTlD1moRRrrK_JwA2q4,"Princes Hill Primary School VIC,Australia",-37.7805923,144.9680095,2,3054,OK,"establishment,point_of_interest,school"
91,ROOFTOP,"383 Murray Rd, Preston VIC 3072, Australia",ChIJgfP8ovpE1moR2Mgr_zx4tDU,"Preston West Primary School VIC,Australia",-37.7376288,144.9955553,1,3072,OK,"establishment,point_of_interest,school"
92,GEOMETRIC_CENTER,"Hotham St, Preston VIC 3072, Australia",ChIJf2awzVhE1moRU9DPtlhptXo,"Preston South Primary School VIC,Australia",-37.7480144,145.0075304,1,3072,OK,"establishment,point_of_interest,school"
93,ROOFTOP,"240 Tyler St, Preston VIC 3072, Australia",ChIJY0fP_atF1moRBpCdEh_sfB8,"Preston Primary School VIC,Australia",-37.7305576,145.0103551,1,3072,OK,"establishment,point_of_interest,school"
94,ROOFTOP,"93 Tyler St, Preston VIC 3072, Australia",ChIJF_LlXMhF1moRTCt5B0bx8Mc,"Preston North East Primary School VIC,Australia",-37.733588,145.029469,1,3072,OK,"establishment,point_of_interest,school"
95,GEOMETRIC_CENTER,"Albert St, Port Fairy VIC 3284, Australia",ChIJMZMYz1xhnaoRC47SqZVtgmg,"Port Fairy Consolidated School VIC,Australia",-38.386735,142.227676,1,3284,OK,"establishment,point_of_interest,school"
96,GEOMETRIC_CENTER,"Martley St, Porepunkah VIC 3740, Australia",ChIJn3bQiCSeJmsRhh2ZxB_vDW8,"Porepunkah Primary School VIC,Australia",-36.6976565,146.9123505,1,3740,OK,"establishment,point_of_interest,school"
97,ROOFTOP,"27 Ranceby Rd, Poowong VIC 3988, Australia",ChIJX5LEBCL0KWsRNEkRsL9N36w,"Poowong Consolidated School VIC,Australia",-38.3424345,145.7690371,1,3988,OK,"establishment,point_of_interest,school"
98,GEOMETRIC_CENTER,"Ararat-Halls Gap Rd, Pomonal VIC 3381, Australia",ChIJY9HT9noEzmoRsrChEBPy5UI,"Pomonal Primary School VIC,Australia",-37.1933156,142.6086641,1,3381,OK,"establishment,point_of_interest,school"
99,GEOMETRIC_CENTER,"Hertford Street, Sebastopol VIC 3356, Australia",ChIJaZWUHLJE0WoRqYXdyH7YrkU,"Phoenix P-12 Community College VIC,Australia",-37.5870839,143.8338557,1,3356,OK,"establishment,point_of_interest,school"
100,ROOFTOP,"164 Halletts Way, Darley VIC 3340, Australia",ChIJn0FRqcS_1moRp0QmRgK42ew,"Pentland Primary School VIC,Australia",-37.655369,144.4226005,1,3340,OK,"establishment,point_of_interest,school"
101,ROOFTOP,"Penders Grove Primary School, 370 Victoria Rd, Thornbury VIC 3071, Australia",ChIJcx4XaF1E1moRenEAnNIbt_I,"Penders Grove Primary School VIC,Australia",-37.7546113,145.0142228,1,3071,OK,street_address
102,ROOFTOP,"25 Pembroke Rd, Mooroolbark VIC 3138, Australia",ChIJ8S7w4O4v1moRuyypf-20cxM,"Pembroke Primary School VIC,Australia",-37.7966093,145.3271592,1,3138,OK,"establishment,point_of_interest,school"
103,ROOFTOP,"31-47 Ashley St, Paynesville VIC 3880, Australia",ChIJz_gH0pWDL2sRoRxI7sKR94I,"Paynesville Primary School VIC,Australia",-37.9117923,147.7149618,1,3880,OK,"establishment,point_of_interest,school"
104,ROOFTOP,"411-429 Reynard St, Pascoe Vale South VIC 3044, Australia",ChIJSXC1Nl5b1moRy_Khe9SXmyg,"Pascoe Vale South Primary School VIC,Australia",-37.7462302,144.9356788,2,3044,OK,"establishment,point_of_interest,school"
105,ROOFTOP,"362 Gaffney St, Pascoe Vale VIC 3044, Australia",ChIJZ_vi9Wpb1moRK8EIoq49XAY,"Pascoe Vale Primary School VIC,Australia",-37.7307598,144.9376111,1,3044,OK,"establishment,point_of_interest,school"
106,GEOMETRIC_CENTER,"Kent Rd & Derby Street, Pascoe Vale VIC 3044, Australia",ChIJT0APZiNb1moREx0EquU2k24,"Pascoe Vale North Primary School VIC,Australia",-37.7214351,144.9484502,1,3044,OK,"establishment,point_of_interest,school"
107,ROOFTOP,"178 Community Hub, Hillside VIC 3037, Australia",ChIJLfRpWsr11moRAApNikDXh14,"Parkwood Green Primary School VIC,Australia",-37.6990941,144.7446339,1,3037,OK,"establishment,point_of_interest,school"
108,ROOFTOP,"38/54 Jolimont Rd, Forest Hill VIC 3131, Australia",ChIJrfW1XiE_1moRmARky7wPMds,"Parkmore Primary School VIC,Australia",-37.8439445,145.1769468,1,3131,OK,"establishment,point_of_interest,school"
109,GEOMETRIC_CENTER,"Parkhill Dr, Ashwood VIC 3147, Australia",ChIJ6fy4vzhA1moRgP8psIx83VM,"Parkhill Primary School VIC,Australia",-37.8631829,145.1066999,1,3147,OK,"establishment,point_of_interest,school"
110,ROOFTOP,"1 Bowmore Ave, Park Orchards VIC 3114, Australia",ChIJh2G13PE51moRT7AXJ6HVYB8,"Park Orchards Primary School VIC,Australia",-37.779864,145.215982,2,3114,OK,"establishment,point_of_interest,school"
111,ROOFTOP,"Kangaroo Ground, 585 Kangaroo Ground-st Andrews Rd, Panton Hill VIC 3759, Australia",ChIJCwike-w01moR6EelMheExy8,"Panton Hill Primary School VIC,Australia",-37.6414202,145.2397353,2,3759,OK,"establishment,point_of_interest,school"
112,ROOFTOP,"8759 Princes Hwy, Panmure VIC 3265, Australia",ChIJnc9pTnRYzWoRqtUcgGjfY8Y,"Panmure Primary School VIC,Australia",-38.329359,142.732837,1,3265,OK,"establishment,point_of_interest,school"
113,ROOFTOP,"15 Kennedy Rd, Pakenham VIC 3810, Australia",ChIJlbHmZdnhKWsRgHLsblLY29o,"Pakenham Hills Primary School VIC,Australia",-38.0614749,145.4952855,1,3810,OK,"establishment,point_of_interest,school"
114,ROOFTOP,"1050 Wangaratta-Whitfield Rd, Wangaratta VIC 3678, Australia",ChIJeQ_oUuDcJmsRUy4gkRmwYiM,"Oxley Primary School VIC,Australia",-36.4408601,146.3598633,1,3678,OK,"establishment,point_of_interest,school"
115,ROOFTOP,"354 Osbornes Flat Rd, Osbornes Flat VIC 3691, Australia",ChIJ8Vb0yhZVIWsRNNm1TWFGiAQ,"Osbornes Flat Primary School VIC,Australia",-36.317473,146.892734,1,3691,OK,"establishment,point_of_interest,school"
116,ROOFTOP,"300 Channel Rd, Orrvale VIC 3631, Australia",ChIJ9TBetnuB2GoRVQ6P-ePhJWE,"Orrvale Primary School VIC,Australia",-36.4099006,145.4398515,1,3631,OK,"establishment,point_of_interest,school"
117,GEOMETRIC_CENTER,"Koonung Rd, Blackburn North VIC 3130, Australia",ChIJtyoDE7w41moRfkBYCcZ9D0A,"Old Orchard Primary School VIC,Australia",-37.8071033,145.1524709,1,3130,OK,"establishment,point_of_interest,school"
118,ROOFTOP,"79-93 Kurrajong Rd, Narre Warren VIC 3805, Australia",ChIJmRv8S-AZ1moR6ArLw6_ZwGo,"Oatlands Primary School VIC,Australia",-38.006904,145.3156395,1,3805,OK,"establishment,point_of_interest,school"
119,ROOFTOP,"27 Grundy Ave, Nyora VIC 3987, Australia",ChIJ7xRC-YP3KWsRYUof6IajaPg,"Nyora Primary School VIC,Australia",-38.3361468,145.6749451,1,3987,OK,"establishment,point_of_interest,school"
120,GEOMETRIC_CENTER,"Church St, Nullawil VIC 3529, Australia",ChIJEY2azX7l2moRxcsb1EsJnCo,"Nullawil Primary School VIC,Australia",-35.8533006,143.1783875,1,3529,OK,"establishment,point_of_interest,school"
121,GEOMETRIC_CENTER,"School Rd, Nowa Nowa VIC 3887, Australia",ChIJvwTAIo9DJWsRNR_6OU8gXSc,"Nowa Nowa Primary School VIC,Australia",-37.7268133,148.0922984,1,3887,OK,"establishment,point_of_interest,school"
122,ROOFTOP,"33 Helen St, Northcote VIC 3070, Australia",ChIJb19uYHxD1moRt7lIpe9FGjw,"Northcote Primary School VIC,Australia",-37.771781,144.996436,1,3070,OK,"establishment,point_of_interest,school"
123,ROOFTOP,"210 Errol St, North Melbourne VIC 3051, Australia",ChIJlWTh9i9d1moRswc-S6sPnx8,"North Melbourne Primary School VIC,Australia",-37.7985311,144.9513753,1,3051,OK,"establishment,point_of_interest,school"
124,ROOFTOP,"145 Nayook-Powelltown Rd, Nayook VIC 3832, Australia",ChIJ19e_eO6zKWsRK_yEg7JloAE,"Noojee Primary School VIC,Australia",-37.9215057,145.9499704,1,3832,OK,"establishment,point_of_interest,school"
125,GEOMETRIC_CENTER,"Mclaughlins Rd, Newmerella VIC 3886, Australia",ChIJ7aAQo71MJgAR5NYIt9_vwEs,"Newmerella Primary School VIC,Australia",-37.7355167,148.4338675,1,3886,OK,"establishment,point_of_interest,school"
126,ROOFTOP,"2701 Midland Hwy, Newlyn VIC 3364, Australia",ChIJnz_LS04x0WoRPPkb9fGFYKY,"Newlyn Primary School VIC,Australia",-37.41184,143.984708,1,3364,OK,"establishment,point_of_interest,school"
127,ROOFTOP,"180 Main Neerim Rd, Neerim South VIC 3831, Australia",ChIJzU6ccrWwKWsRvhQuHYu19wg,"Neerim South Primary School VIC,Australia",-38.015521,145.956025,1,3831,OK,"establishment,point_of_interest,school"
128,ROOFTOP,"145 Nayook-Powelltown Rd, Nayook VIC 3832, Australia",ChIJ19e_eO6zKWsRK_yEg7JloAE,"Neerim District Rural Primary School VIC,Australia",-37.9215057,145.9499704,1,3832,OK,"establishment,point_of_interest,school"
129,ROOFTOP,"32 School Rd, Narracan VIC 3824, Australia",ChIJ1-d2hDd1KWsRyiS81scIxeE,"Narracan Primary School VIC,Australia",-38.261951,146.231861,1,3824,OK,"establishment,point_of_interest,school"
130,GEOMETRIC_CENTER,"27-35 Spencer St, Nar Nar Goon VIC 3812, Australia",ChIJx9k3ES7hKWsRLk0pTMrSWKk,"Nar Nar Goon Primary School VIC,Australia",-38.0825082,145.5735328,2,3812,OK,"establishment,point_of_interest,school"
131,ROOFTOP,"4721 Colac-Ballarat Rd, Napoleons VIC 3352, Australia",ChIJ1YkkNTNZ0WoR9iU_wOFH65E,"Napoleons Primary School VIC,Australia",-37.6785813,143.8259268,1,3352,OK,"establishment,point_of_interest,school"
132,GEOMETRIC_CENTER,"Kulkyne Way, Nangiloc VIC 3494, Australia",ChIJuWbANnsVw2oR8wZRgOsPbqc,"Nangiloc Colignan and District Primary School VIC,Australia",-34.4719192,142.3544269,1,3494,OK,"establishment,point_of_interest,school"
133,ROOFTOP,"31 Goulburn St, Nagambie VIC 3608, Australia",ChIJUSvMsz8W2GoRvt6OOhercsM,"Nagambie Primary School VIC,Australia",-36.7877806,145.1570719,1,3608,OK,"establishment,point_of_interest,school"
134,ROOFTOP,"1673 Benalla-Whitfield Rd, Myrrhee VIC 3732, Australia",ChIJPR_5wuP4JmsRFD6UPqblJvk,"Myrrhee Primary School VIC,Australia",-36.738318,146.318244,1,3732,OK,"establishment,point_of_interest,school"
135,ROOFTOP,"8-10 Impey St, Murchison VIC 3610, Australia",ChIJ-9xOKUZp2GoRk_ZMZfw_PBM,"Murchison Primary School VIC,Australia",-36.6170672,145.2149058,1,3610,OK,"establishment,point_of_interest,school"
136,ROOFTOP,"18 Panfield Ave, Ringwood VIC 3134, Australia",ChIJOTZFYjs61moRLzJfByoHmZ8,"Mullum Primary School VIC,Australia",-37.7982798,145.2388234,1,3134,OK,"establishment,point_of_interest,school"
137,ROOFTOP,"23-31 Gladeswood Dr, Mulgrave VIC 3170, Australia",ChIJCX8scLwV1moRQ15UG2kqCKc,"Mulgrave Primary School VIC,Australia",-37.9326039,145.1974953,1,3170,OK,"establishment,point_of_interest,school"
138,ROOFTOP,"1349 Ararat-Halls Gap Rd, Moyston VIC 3377, Australia",ChIJ8cG-wsH-0WoRa0Fa7YEW5WQ,"Moyston Primary School VIC,Australia",-37.301519,142.767739,1,3377,OK,"establishment,point_of_interest,school"
139,ROOFTOP,"2799 Wangaratta-Whitfield Rd, Moyhu VIC 3732, Australia",ChIJf48s34vlJmsR0DHebPgZwew,"Moyhu Primary School VIC,Australia",-36.593349,146.3836407,1,3732,OK,"establishment,point_of_interest,school"
140,ROOFTOP,"105-107 Mount Pleasant Rd, Nunawading VIC 3131, Australia",ChIJBT5Ts9U41moRxf_GCBKvvdI,"Mount Pleasant Primary School VIC,Australia",-37.8289756,145.1808657,1,3131,OK,"establishment,point_of_interest,school"
141,ROOFTOP,"1206 Geelong Rd, Canadian VIC 3350, Australia",ChIJF11mkdVa0WoRmPY1tVh1_vs,"Mount Clear Primary School VIC,Australia",-37.6043729,143.8680865,1,3350,OK,"establishment,point_of_interest,school"
142,ROOFTOP,"527 Millers Rd, Blowhard VIC 3352, Australia",ChIJp6hvFoRA0WoRYPDKZRVThAg,"Mount Blowhard Primary School VIC,Australia",-37.429349,143.786707,1,3352,OK,"establishment,point_of_interest,school"
143,ROOFTOP,"15A Langridge St, Hoppers Crossing VIC 3029, Australia",ChIJo2my0UqP1moROaRsMgSVjak,"Mossfiel Primary School VIC,Australia",-37.8733769,144.6962482,1,3029,OK,"establishment,point_of_interest,school"
144,ROOFTOP,"76 - 82 Vary St, Morwell VIC 3840, Australia",ChIJmbTYOZwRKWsR7irSqpHozcI,"Morwell Primary School VIC,Australia",-38.2275603,146.4248356,1,3840,OK,"establishment,point_of_interest,school"
145,ROOFTOP,"76 - 82 Vary St, Morwell VIC 3840, Australia",ChIJmbTYOZwRKWsR7irSqpHozcI,"Morwell Park Primary School VIC,Australia",-38.2275603,146.4248356,1,3840,OK,"establishment,point_of_interest,school"
146,ROOFTOP,"Morwell Primary School, 2-14 Tobruk St, Morwell VIC 3840, Australia",ChIJj-vNdYYRKWsRNr6uS-8sFQE,"Morwell (Tobruk Street) Primary School  VIC,Australia",-38.233343,146.416869,1,3840,OK,street_address
147,GEOMETRIC_CENTER,"Commercial Rd, Morwell VIC 3840, Australia",ChIJlfkxExkSKWsRQQvGw8TGS1U,"Morwell (Commercial Road) Primary School  VIC,Australia",-38.2386599,146.400763,1,3840,OK,"establishment,point_of_interest,school"
148,ROOFTOP,"77 Gorge Rd, South Morang VIC 3752, Australia",ChIJ9RgzRoBJ1moRrOYDN7XPIpU,"Morang South Primary School VIC,Australia",-37.65308,145.095006,1,3752,OK,"establishment,point_of_interest,school"
149,GEOMETRIC_CENTER,"16-18 O'brien St, Mooroopna VIC 3629, Australia",ChIJ-U_97YmG2GoRrDw7kKJepBc,"Mooroopna Primary School VIC,Australia",-36.3919933,145.3613785,3,3629,OK,"establishment,point_of_interest,school"
150,ROOFTOP,"45 Macisaac Rd, Mooroopna VIC 3629, Australia",ChIJb7sTO3KG2GoRZ5qaJtE0Kl8,"Mooroopna Park Primary School VIC,Australia",-36.3798,145.345713,1,3629,OK,"establishment,point_of_interest,school"
151,ROOFTOP,"835 Ardmona Rd, Mooroopna North VIC 3629, Australia",ChIJzxdKuWuP2GoRfbmLvSzqwuM,"Mooroopna North Primary School VIC,Australia",-36.3291194,145.2983859,1,3629,OK,"establishment,point_of_interest,school"
152,ROOFTOP,"106-114 Taylor Rd, Mooroolbark VIC 3138, Australia",ChIJDSs4Kugv1moRMcZItYSYd0o,"Mooroolbark East Primary School VIC,Australia",-37.7869625,145.3351414,1,3138,OK,"establishment,point_of_interest,school"
153,ROOFTOP,"87 Wilson St, Moonee Ponds VIC 3039, Australia",ChIJjY_lIZNc1moRaPCX3_7mLKo,"Moonee Ponds Primary School VIC,Australia",-37.7630431,144.9333103,1,3039,OK,"establishment,point_of_interest,school"
154,ROOFTOP,"111 Anderson Rd, Fawkner VIC 3060, Australia",ChIJw4nl_ktF1moRs69NAJYCDNE,"Moomba Park Primary School VIC,Australia",-37.6959891,144.9666171,1,3060,OK,"establishment,point_of_interest,school"
155,ROOFTOP,"Montrose Primary School, 17-21 Leith Rd, Montrose VIC 3765, Australia",ChIJx-yKtIkv1moRN830kv029JY,"Montrose Primary School VIC,Australia",-37.808843,145.3446,1,3765,OK,street_address
156,GEOMETRIC_CENTER,"South St, Moe VIC 3825, Australia",ChIJb84ezXwJKWsRUTNFdiLQBkE,"Moe (South Street) Primary School VIC,Australia",-38.1830126,146.2593618,1,3825,OK,"establishment,point_of_interest,school"
157,GEOMETRIC_CENTER,"Balook St, Mirboo North VIC 3871, Australia",ChIJiaEIDz-2ib8RFdE2TWJwHrA,"Mirboo North Primary School VIC,Australia",-38.4008779,146.150575,1,3871,OK,"establishment,point_of_interest,school"
158,GEOMETRIC_CENTER,"Blamey Ave, Mill Park VIC 3082, Australia",ChIJ896F4SZJ1moRScHjiOyof_4,"Mill Park Primary School VIC,Australia",-37.6748875,145.0658047,1,3082,OK,"establishment,point_of_interest,school"
159,GEOMETRIC_CENTER,"Pindari Ave, Mill Park VIC 3082, Australia",ChIJK9FeYjVJ1moRj_Xj6ugFh9k,"Mill Park Heights Primary School VIC,Australia",-37.6573335,145.0507484,1,3082,OK,"establishment,point_of_interest,school"
160,ROOFTOP,"96 Landscape Dr, East Doncaster VIC 3109, Australia",ChIJ10iGfkg41moRULo5O6T0O5k,"Milgate Primary School VIC,Australia",-37.7740433,145.1755662,1,3109,OK,"establishment,point_of_interest,school"
161,ROOFTOP,"219-227 Ninth St, Mildura VIC 3500, Australia",ChIJIUPKjnIDw2oR19927k4RqAw,"Mildura West Primary School VIC,Australia",-34.1794783,142.1513862,1,3500,OK,"establishment,point_of_interest,school"
162,ROOFTOP,"133 Milawa-Bobinawarrah Rd, Milawa VIC 3678, Australia",ChIJ1TLMJ6nDJmsRI0xJbmKGwCE,"Milawa Primary School VIC,Australia",-36.4444805,146.4327946,1,3678,OK,"establishment,point_of_interest,school"
163,ROOFTOP,"Middle Indigo Primary School, 710 Indigo Creek Rd, Indigo Valley VIC 3688, Australia",ChIJa5XawM5PIWsRvN9attGxAQo,"Middle Indigo Primary School VIC,Australia",-36.155965,146.725079,1,3688,OK,street_address
164,GEOMETRIC_CENTER,"Miller St, Melbourne VIC 3068, Australia",ChIJ3QgR42lD1moRAiBZNWobb9c,"Merri Creek Primary School VIC,Australia",-37.7770576,144.987818,1,3068,OK,"establishment,point_of_interest,school"
165,ROOFTOP,"25 Everton Dr, Mernda VIC 3754, Australia",ChIJu3HcUN9K1moRbZ0HndqRH2o,"Mernda Primary School VIC,Australia",-37.594416,145.0923131,1,3754,OK,"establishment,point_of_interest,school"
166,ROOFTOP,"Meredith Primary School, 5 Wallace St, Meredith VIC 3333, Australia",ChIJwz_-XI7_02oRq96yLfJL9cE,"Meredith Primary School VIC,Australia",-37.8426271,144.0779886,1,3333,OK,"establishment,point_of_interest,school"
167,ROOFTOP,"188 Commercial St, Merbein VIC 3505, Australia",ChIJqUzQPjAHw2oRdDhjcqmXHA8,"Merbein P-10 College VIC,Australia",-34.1695018,142.0713506,1,3505,OK,"establishment,point_of_interest,school"
168,ROOFTOP,"1-7 Broome Ave, Mentone VIC 3194, Australia",ChIJmViXLVJs1moRvK27UqlV0GA,"Mentone Park Primary School VIC,Australia",-37.979852,145.0824853,1,3194,OK,"establishment,point_of_interest,school"
169,ROOFTOP,"25 Silva Dr, Wodonga VIC 3690, Australia",ChIJu8nPkKZZIWsRWlRK6Y2zLpQ,"Melrose Primary School VIC,Australia",-36.1310672,146.8612245,1,3690,OK,"establishment,point_of_interest,school"
170,ROOFTOP,"253 Tucker Rd, Ormond VIC 3204, Australia",ChIJFaqXydlr1moR7rRRkfbHmGY,"Mckinnon Primary School VIC,Australia",-37.9079538,145.0524282,1,3204,OK,"establishment,point_of_interest,school"
171,GEOMETRIC_CENTER,"Cnr of Calder Hwy and Leslie St, Marong VIC 3515, Australia",ChIJb97ODR-xLwARpgpKm1qd-Do,"Marong Primary School VIC,Australia",-36.7356181,144.1351801,1,3515,OK,"establishment,point_of_interest,school"
172,ROOFTOP,"80 Newall St, Marnoo VIC 3387, Australia",ChIJ-cc1ud4v0GoRg8b2WkyyIkI,"Marnoo Primary School VIC,Australia",-36.6764578,142.8704572,1,3387,OK,"establishment,point_of_interest,school"
173,GEOMETRIC_CENTER,"Greaves St, Werribee VIC 3030, Australia",ChIJrdwDfQ6F1moRKall-HmAvrw,"Manorvale Primary School VIC,Australia",-37.8935977,144.6441521,1,3030,OK,"establishment,point_of_interest,school"
174,ROOFTOP,"10 Corang Ave, Grovedale VIC 3216, Australia",ChIJD3MB2UgT1GoREjGOMd-vhNQ,"Mandama Primary School VIC,Australia",-38.199867,144.328386,1,3216,OK,"establishment,point_of_interest,school"
175,ROOFTOP,"17 Tooronga Rd, Malvern VIC 3144, Australia",ChIJO_R1CPJp1moRkBRfLwIUm50,"Malvern Primary School VIC,Australia",-37.871416,145.0384167,1,3144,OK,"establishment,point_of_interest,school"
176,APPROXIMATE,"Maiden Gully VIC 3551, Australia",ChIJm6y_9SpR12oRQNqgMKR5BQU,"Maiden Gully Primary School VIC,Australia",-36.743,144.209,1,3551,OK,"locality,political"
177,ROOFTOP,"61 Docwra St, Magpie VIC 3356, Australia",ChIJLeZUnxNb0WoRou0DPahdTtY,"Magpie Primary School VIC,Australia",-37.61581,143.84321,1,3356,OK,"establishment,point_of_interest,school"
178,GEOMETRIC_CENTER,"Church St, Maffra VIC 3860, Australia",ChIJFwJ9B4gzL2sRJqAqO0dsLWI,"Maffra Primary School VIC,Australia",-37.9645801,146.9773933,1,3860,OK,"establishment,point_of_interest,school"
179,ROOFTOP,"29 ?€? 35 Goldsmith Ave, Delahey VIC 3037, Australia",ChIJVVVV8Y711moRlRkKxK72-1A,"Mackellar Primary School VIC,Australia",-37.7173406,144.7775514,1,3037,OK,"establishment,point_of_interest,school"
180,GEOMETRIC_CENTER,"710 Alt Calder Highway, Lockwood VIC 3551, Australia",ChIJcSPt8vpT12oR0_rwSx6yWIc,"Lockwood South Primary School VIC,Australia",-36.8413969,144.1568406,1,3551,OK,"establishment,point_of_interest,school"
181,ROOFTOP,"190 Wiegards Rd, Lockwood VIC 3551, Australia",ChIJ1eICGQZS12oRbw_DDYYjgqo,"Lockwood Primary School VIC,Australia",-36.802553,144.161574,2,3551,OK,"establishment,point_of_interest,school"
182,ROOFTOP,"2 Victoria Rd, Loch VIC 3945, Australia",ChIJxy7URs73KWsRWto70RBHZJo,"Loch Primary School VIC,Australia",-38.3695763,145.7043551,1,3945,OK,"establishment,point_of_interest,school"
183,GEOMETRIC_CENTER,"Livingstone Rd, Vermont South VIC 3133, Australia",ChIJuY4mTR4_1moR9oqR8edh-qU,"Livingstone Primary School VIC,Australia",-37.8529156,145.1809271,1,3133,OK,"establishment,point_of_interest,school"
184,ROOFTOP,"8 Monte St, Nerrina VIC 3350, Australia",ChIJ0W-3LeRF0WoRwkUkE54DZMw,"Little Bendigo Primary School VIC,Australia",-37.5429433,143.8948388,1,3350,OK,"establishment,point_of_interest,school"
185,ROOFTOP,"74-88 Holmes Rd, North Bendigo VIC 3550, Australia",ChIJZ9OAwtFZ12oRyJWLPwwEslY,"Lightning Reef Primary School VIC,Australia",-36.7370604,144.2687168,1,3550,OK,"establishment,point_of_interest,school"
186,ROOFTOP,"1 Nerrena Rd, Leongatha VIC 3956, Australia",ChIJ-dA7GmgnKmsR-rExMBghVXA,"Leongatha Primary School VIC,Australia",-38.4788523,145.9594739,1,3956,OK,"establishment,point_of_interest,school"
187,GEOMETRIC_CENTER,"Lemnos N Rd, Lemnos VIC 3631, Australia",ChIJLa7L3cqC2GoRivyCYxH6Svw,"Lemnos Primary School VIC,Australia",-36.3580919,145.4624926,1,3631,OK,"establishment,point_of_interest,school"
188,ROOFTOP,"77-79 Argus St, Cheltenham VIC 3192, Australia",ChIJyYnt8RVs1moRoNAGIXcX_KQ,"Le Page Primary School VIC,Australia",-37.9591998,145.0683929,1,3192,OK,"establishment,point_of_interest,school"
189,GEOMETRIC_CENTER,"Armidale Rd, Doreen VIC 3754, Australia",ChIJGSqNl1K112oRyootUQuDLFk,"Laurimar Primary School VIC,Australia",-37.5858234,145.1269483,1,3754,OK,"establishment,point_of_interest,school"
190,ROOFTOP,"270 Burnt Store Rd, Lardner VIC 3821, Australia",ChIJUbecMruUKWsR4RBmpNZpvT8,"Lardner and District Primary School VIC,Australia",-38.2048209,145.8803637,1,3821,OK,"establishment,point_of_interest,school"
191,ROOFTOP,"52 Westernport Rd, Lang Lang VIC 3984, Australia",ChIJsQdor6j-KWsRh-k28tMH-dA,"Lang Lang Primary School VIC,Australia",-38.2635243,145.5698114,1,3984,OK,"establishment,point_of_interest,school"
192,ROOFTOP,"12 Vaughan St, Lal Lal VIC 3352, Australia",ChIJkUmwAjtS0WoR8I_j9Byw6VI,"Lal Lal Primary School VIC,Australia",-37.676835,144.010636,1,3352,OK,"establishment,point_of_interest,school"
193,GEOMETRIC_CENTER,"Janet St, Blackburn VIC 3130, Australia",ChIJp1K4gqdA1moRiq7gsyTGqms,"Laburnum Primary School VIC,Australia",-37.8271373,145.1381611,1,3130,OK,"establishment,point_of_interest,school"
194,ROOFTOP,"35 School Rd, Labertouche VIC 3816, Australia",ChIJFQ5R0SrBKWsRsRCVNXUPnSg,"Labertouche Primary School VIC,Australia",-38.038019,145.805225,1,3816,OK,"establishment,point_of_interest,school"
195,GEOMETRIC_CENTER,"Mowbray Cres, Kurunjang VIC 3337, Australia",ChIJITafqHTt1moRQxg_tTTqY4M,"Kurunjang Primary School VIC,Australia",-37.6709259,144.585979,1,3337,OK,"establishment,point_of_interest,school"
196,GEOMETRIC_CENTER,"James St, Korumburra VIC 3950, Australia",ChIJLTJN1-wfKmsRcinCSC85Bxg,"Korumburra Primary School VIC,Australia",-38.4354467,145.8249469,1,3950,OK,"establishment,point_of_interest,school"
197,ROOFTOP,"28-34 Moody St, Koo Wee Rup VIC 3981, Australia",ChIJF5IJ4X_9KWsR1c5Weu2IB_8,"Koo Wee Rup Primary School VIC,Australia",-38.1950726,145.4916567,1,3981,OK,"establishment,point_of_interest,school"
198,GEOMETRIC_CENTER,"Kathryn Rd, Knoxfield VIC 3180, Australia",ChIJZ-Yavko81moRPFnvCVsw6QU,"Knox Park Primary School VIC,Australia",-37.8834526,145.2519805,1,3180,OK,"establishment,point_of_interest,school"
199,ROOFTOP,"80 Argyle Way, Wantirna South VIC 3152, Australia",ChIJ0xXfA9U91moR8b4WxwH3yuo,"Knox Gardens Primary School VIC,Australia",-37.882417,145.228671,1,3152,OK,"establishment,point_of_interest,school"
200,ROOFTOP,"39 Darwin Rd, Boronia VIC 3155, Australia",ChIJvSKSFXE81moRAxMZSN7jPs0,"Knox Central Primary School VIC,Australia",-37.8610986,145.2545809,1,3155,OK,"establishment,point_of_interest,school"
201,ROOFTOP,"58 Bishop St, Yarraville VIC 3013, Australia",ChIJhTdV5kxn1moRacAHbtRwzi8,"Kingsville Primary School VIC,Australia",-37.8123913,144.8741534,1,3013,OK,"establishment,point_of_interest,school"
202,ROOFTOP,"25 Farm Rd, Cheltenham VIC 3192, Australia",ChIJ2afXrmls1moRlc2-xdcS93c,"Kingston Heath Primary School VIC,Australia",-37.9624643,145.0791327,1,3192,OK,"establishment,point_of_interest,school"
203,ROOFTOP,"Kingsbury Primary School, 1A Maryborough Ave, Kingsbury VIC 3083, Australia",ChIJO6zMgvpF1moRAJq138S1uEc,"Kingsbury Primary School VIC,Australia",-37.7160831,145.0368593,1,3083,OK,"establishment,point_of_interest,school"
204,ROOFTOP,"7370 Goulburn Valley Hwy, Kialla West VIC 3631, Australia",ChIJXYKvCfd92GoRrMmp8nU825Q,"Kialla West Primary School VIC,Australia",-36.466096,145.389937,1,3631,OK,"establishment,point_of_interest,school"
205,ROOFTOP,"35 Kitchener St, Kew East VIC 3102, Australia",ChIJC_psjeJD1moRuV9Lplkbiv0,"Kew East Primary School VIC,Australia",-37.7962396,145.049079,1,3102,OK,"establishment,point_of_interest,school"
206,GEOMETRIC_CENTER,"Swindon Cres, Keilor Downs VIC 3038, Australia",ChIJXZT3ST9f1moRXpdpij6D1eM,"Keilor Views Primary School VIC,Australia",-37.7171554,144.8088543,1,3038,OK,"establishment,point_of_interest,school"
207,ROOFTOP,"19 Ronald Grove, Keilor East VIC 3033, Australia",ChIJfdqZqaZe1moRzJHfYv7l624,"Keilor Heights Primary School VIC,Australia",-37.7370732,144.8672774,1,3033,OK,"establishment,point_of_interest,school"
208,ROOFTOP,"17/27A Bankin St, Katandra West VIC 3634, Australia",ChIJbRvTvbxgJ2sRp6dz-BRU6OQ,"Katandra West Primary School VIC,Australia",-36.2254133,145.5603618,1,3634,OK,"establishment,point_of_interest,school"
209,ROOFTOP,"10 Graham Rd, Kangaroo Ground VIC 3097, Australia",ChIJYwruiqc21moREytBBt15ha8,"Kangaroo Ground Primary School VIC,Australia",-37.6907601,145.2143777,1,3097,OK,"establishment,point_of_interest,school"
210,ROOFTOP,"60-80 Olympic Parade, Kangaroo Flat VIC 3555, Australia",ChIJ3YprtFtQ12oRKawBZd1XYnQ,"Kangaroo Flat Primary School VIC,Australia",-36.7877704,144.2345292,1,3555,OK,"establishment,point_of_interest,school"
211,ROOFTOP,"1080 Jacksons Track, Jindivick VIC 3818, Australia",ChIJDxhALam5KWsRBW9TFwM_8NU,"Jindivick Primary School VIC,Australia",-38.0276247,145.9012022,1,3818,OK,"establishment,point_of_interest,school"
212,GEOMETRIC_CENTER,"Petronella Ave, Wheelers Hill VIC 3150, Australia",ChIJ-XLoxiU-1moRBkbjiuBYlMY,"Jells Park Primary School VIC,Australia",-37.9024854,145.193024,1,3150,OK,"establishment,point_of_interest,school"
213,GEOMETRIC_CENTER,"29-59 James Cook Drive, Endeavour Hills VIC 3802, Australia",ChIJ-SSfo5cM1moRnmFFz93Rmu8,"James Cook Primary School VIC,Australia",-37.9789118,145.2457712,1,3802,OK,"establishment,point_of_interest,school"
214,ROOFTOP,"124 Waterdale Rd, Ivanhoe VIC 3079, Australia",ChIJrWEu5xtE1moRMWLL1Z8Sl-0,"Ivanhoe Primary School VIC,Australia",-37.7666928,145.0426421,1,3079,OK,"establishment,point_of_interest,school"
215,ROOFTOP,"35 Warncliffe Rd, Ivanhoe East VIC 3079, Australia",ChIJeU0QpaRG1moRdHF1HUbdU1g,"Ivanhoe East Primary School VIC,Australia",-37.7745967,145.059521,1,3079,OK,"establishment,point_of_interest,school"
216,ROOFTOP,"3208 Fifteenth St, Irymple VIC 3500, Australia",ChIJ5-ymvCoFw2oRnJiqdM0efx0,"Irymple South Primary School VIC,Australia",-34.2528834,142.1904113,1,3500,OK,"establishment,point_of_interest,school"
217,GEOMETRIC_CENTER,"15th Street & Sandilong Avenue, Irymple VIC 3498, Australia",ChIJl-Uu4vEEw2oRIYIfgCA3XIs,"Irymple Primary School VIC,Australia",-34.2266956,142.1589512,2,3498,OK,"establishment,point_of_interest,school"
218,ROOFTOP,"187 Swinglers Rd, Invermay VIC 3352, Australia",ChIJ9ZIZYmlG0WoRFZB2xakcrqA,"Invermay Primary School VIC,Australia",-37.520317,143.874304,1,3352,OK,"establishment,point_of_interest,school"
219,GEOMETRIC_CENTER,"Main Rd, Hurstbridge VIC 3099, Australia",ChIJLYGAJOw01moRySSfLz2ErR0,"Hurstbridge Primary School VIC,Australia",-37.6354645,145.1981503,1,3099,OK,"establishment,point_of_interest,school"
220,ROOFTOP,"101 Brunel St, Huntly VIC 3551, Australia",ChIJcWNVUMTj2WoRt4X-ubOevao,"Huntly Primary School VIC,Australia",-36.6620733,144.3349101,2,3551,OK,"establishment,point_of_interest,school"
221,GEOMETRIC_CENTER,"Brine Street, Hughesdale VIC 3166, Australia",ChIJAQfHpUxq1moRud76EntDx6w,"Hughesdale Primary School VIC,Australia",-37.9061051,145.0779385,1,3166,OK,"establishment,point_of_interest,school"
222,ROOFTOP,"1 Dodgshun St, Hopetoun VIC 3396, Australia",ChIJ1w7cR6BqxWoReMEpopr2s3M,"Hopetoun P-12 College VIC,Australia",-35.7352773,142.3665008,1,3396,OK,"establishment,point_of_interest,school"
223,GEOMETRIC_CENTER,"82 The Promenade, Narre Warren South VIC 3805, Australia",ChIJXVF5YH4Q1moRwEHut-cErPk,"Hillsmeade Primary School VIC,Australia",-38.0649923,145.3074986,1,3805,OK,"establishment,point_of_interest,school"
224,ROOFTOP,"33 Ashton St, Glen Waverley VIC 3150, Australia",ChIJI3D8yKk_1moRmu290g_eqCE,"Highvale Primary School VIC,Australia",-37.8663939,145.1739544,1,3150,OK,"establishment,point_of_interest,school"
225,ROOFTOP,"218 Roslyn Rd, Highton VIC 3216, Australia",ChIJV2bn3w4T1GoRAzKurNnH4-Q,"Highton Primary School VIC,Australia",-38.1720656,144.3172359,1,3216,OK,"establishment,point_of_interest,school"
226,ROOFTOP,"2-24 Gwynne St, Hamlyn Heights VIC 3218, Australia",ChIJqy57IF4R1GoRVkQrLhZt_ZE,"Herne Hill Primary School VIC,Australia",-38.1293749,144.3321991,1,3218,OK,"establishment,point_of_interest,school"
227,ROOFTOP,"156 Main Rd, Hepburn VIC 3461, Australia",ChIJseLNnWHU1moR2hmLiw3appc,"Hepburn Primary School VIC,Australia",-37.310345,144.132348,1,3461,OK,"establishment,point_of_interest,school"
228,ROOFTOP,"959-973 Heatherton Rd, Springvale VIC 3171, Australia",ChIJj56pWr0U1moRqsDbya1qmlY,"Heatherhill Primary School VIC,Australia",-37.9624543,145.1588442,1,3171,OK,"establishment,point_of_interest,school"
229,ROOFTOP,"121 Church Rd, Hazelwood North VIC 3840, Australia",ChIJ5e3LpvUTKWsR6RN_Yuhepng,"Hazelwood North Primary School VIC,Australia",-38.26827,146.448328,1,3840,OK,"establishment,point_of_interest,school"
230,ROOFTOP,"115 Eminence Blvd, Doreen VIC 3754, Australia",ChIJW7lHh7tK1moRqSqk2xAOwIo,"Hazel Glen College VIC,Australia",-37.5975705,145.1200168,1,3754,OK,"establishment,point_of_interest,school"
231,GEOMETRIC_CENTER,"Hawkesdale VIC 3287, Australia",ChIJubS12f8-zWoRokD8FkrIxZQ,"Hawkesdale P-12 College VIC,Australia",-38.1066269,142.3187077,1,3287,OK,"establishment,point_of_interest,school"
232,GEOMETRIC_CENTER,"Milverton St, Camberwell VIC 3124, Australia",ChIJF1xb3LBB1moRA7tSficgF4M,"Hartwell Primary School VIC,Australia",-37.8478498,145.084312,1,3124,OK,"establishment,point_of_interest,school"
233,ROOFTOP,"155 Harston Rd, Harston VIC 3616, Australia",ChIJhSqbclln2GoR64LEvBMYry0,"Harston Primary School VIC,Australia",-36.470108,145.141851,1,3616,OK,"establishment,point_of_interest,school"
234,ROOFTOP,"65 King Rd, Harkaway VIC 3806, Australia",ChIJRZ_q064Z1moRyfXnKGXRdac,"Harkaway Primary School VIC,Australia",-38.0011973,145.3452158,1,3806,OK,"establishment,point_of_interest,school"
235,ROOFTOP,"32 Somerville Rd, Hampton Park VIC 3976, Australia",ChIJE-7YRhIR1moRUfI28lXyZaQ,"Hampton Park Primary School VIC,Australia",-38.0309068,145.2528398,1,3976,OK,"establishment,point_of_interest,school"
236,ROOFTOP,"2-24 Chaucer St, Hamlyn Heights VIC 3215, Australia",ChIJnW4slEER1GoRuFMreaVGfH8,"Hamlyn Banks Primary School VIC,Australia",-38.1175483,144.3271571,1,3215,OK,"establishment,point_of_interest,school"
237,GEOMETRIC_CENTER,"Andrews St, Hamilton VIC 3300, Australia",ChIJN9If7XX-zGoRtqDtwomDKiY,"Hamilton North Primary School VIC,Australia",-37.7268319,141.996297,2,3300,OK,"establishment,point_of_interest,school"
238,ROOFTOP,"42 Gray St, Hamilton VIC 3300, Australia",ChIJ0QnSVf0BzWoRdzc-qeb3qIc,"Hamilton (Gray Street) Primary School VIC,Australia",-37.7457041,142.0220089,1,3300,OK,"establishment,point_of_interest,school"
239,ROOFTOP,"George Street Primary School, 32-48 George St, Hamilton VIC 3300, Australia",ChIJOa-qhhwCzWoRWQv0L6Zsbsk,"Hamilton (George Street) Primary School  VIC,Australia",-37.746243,142.0344538,1,3300,OK,street_address
240,ROOFTOP,"85 Heyers Rd, Grovedale VIC 3216, Australia",ChIJYzTsq7Rs1GoRCHhLWh_9rl4,"Grovedale West Primary School VIC,Australia",-38.2085754,144.3289241,1,3216,OK,"establishment,point_of_interest,school"
241,ROOFTOP,"143 Bailey St, Grovedale VIC 3216, Australia",ChIJ_4oWr6AU1GoR5250Yxsn-SI,"Grovedale Primary School VIC,Australia",-38.1975999,144.3480564,1,3216,OK,"establishment,point_of_interest,school"
242,ROOFTOP,"2376 Wangaratta-Kilfeera Rd, Greta South VIC 3675, Australia",ChIJ7wxYRg_9JmsRha5EaTulPM4,"Greta Valley Primary School VIC,Australia",-36.618205,146.23588,1,3675,OK,"establishment,point_of_interest,school"
243,ROOFTOP,"3089, 29 Mine St, Greensborough VIC 3088, Australia",ChIJfaDZTMpJ1moRRbLBlPl6Sp8,"Greenhills Primary School VIC,Australia",-37.6919358,145.1182435,1,3088,OK,"establishment,point_of_interest,school"
244,ROOFTOP,"45/49 Stephenson St, Great Western VIC 3374, Australia",ChIJ-eckhmzm0WoR8s-wMxoHg-A,"Great Western Primary School VIC,Australia",-37.1489964,142.851527,1,3374,OK,"establishment,point_of_interest,school"
245,ROOFTOP,"85 Grahamvale Rd, Grahamvale VIC 3631, Australia",ChIJQVt9dQmD2GoRh3jaoqUTplY,"Grahamvale Primary School VIC,Australia",-36.357055,145.430476,1,3631,OK,"establishment,point_of_interest,school"
246,ROOFTOP,"26 Grant St, Goornong VIC 3557, Australia",ChIJvX7pkU_D2WoRg_WfIuu3t2U,"Goornong Primary School VIC,Australia",-36.6169571,144.5050192,1,3557,OK,"establishment,point_of_interest,school"
247,,,,"Goongerah Tubbut P?C8 College VIC,Australia",,,0,,ZERO_RESULTS,
248,GEOMETRIC_CENTER,"Gullane Dr, Sunbury VIC 3429, Australia",ChIJJ-2PF1D41moRjGU5HnfoARA,"Goonawarra Primary School VIC,Australia",-37.5807635,144.750941,1,3429,OK,"establishment,point_of_interest,school"
249,ROOFTOP,"78-98 Manningtree Rd, Hawthorn VIC 3122, Australia",ChIJg-uc_DZC1moR1cBdJEvuIBI,"Glenferrie Primary School VIC,Australia",-37.8242432,145.0337408,1,3122,OK,"establishment,point_of_interest,school"
250,ROOFTOP,"55 Nottingham St, Glen Waverley VIC 3150, Australia",ChIJ2RtwQpc_1moRFQX_uINk4Wc,"Glendal Primary School VIC,Australia",-37.8663076,145.1591795,1,3150,OK,"establishment,point_of_interest,school"
251,ROOFTOP,"774 High St Rd, Glen Waverley VIC 3150, Australia",ChIJx5gE_ro_1moR8BQANidfzio,"Glen Waverley Primary School VIC,Australia",-37.8745789,145.1675315,1,3150,OK,"establishment,point_of_interest,school"
252,ROOFTOP,"31-45 Calendonia Dr, Eltham North VIC 3095, Australia",ChIJD2EQJSc21moRYpxYFJma_k4,"Glen Katherine Primary School VIC,Australia",-37.68982,145.1397426,1,3095,OK,"establishment,point_of_interest,school"
253,ROOFTOP,"217 Carrick Dr, Gladstone Park VIC 3043, Australia",ChIJuSi_D0pa1moRvRzi3K1MbR8,"Gladstone Views Primary School VIC,Australia",-37.6889726,144.8981962,1,3043,OK,"establishment,point_of_interest,school"
254,ROOFTOP,"217 Carrick Dr, Gladstone Park VIC 3043, Australia",ChIJuSi_D0pa1moRvRzi3K1MbR8,"Gladstone Park Primary School VIC,Australia",-37.6889726,144.8981962,1,3043,OK,"establishment,point_of_interest,school"
255,ROOFTOP,"48 Gladesville Dr, Kilsyth VIC 3137, Australia",ChIJQ9uDOFAl1moRRYpBoLfF4O8,"Gladesville Primary School VIC,Australia",-37.8117242,145.3236808,1,3137,OK,"establishment,point_of_interest,school"
256,ROOFTOP,"35 Fisher St, Gisborne VIC 3437, Australia",ChIJubSHa6Pk1moRdt2P8giJIHo,"Gisborne Primary School VIC,Australia",-37.4900327,144.5881838,1,3437,OK,"establishment,point_of_interest,school"
257,ROOFTOP,"200 Yarra St, Geelong VIC 3220, Australia",ChIJ2ZfI8BEU1GoR6eZqHOGngYY,"Geelong South Primary School VIC,Australia",-38.1568177,144.3587182,2,3220,OK,"establishment,point_of_interest,school"
258,ROOFTOP,"37 Cook St, Newtown VIC 3220, Australia",ChIJe5q9kJUT1GoRoDcdWE7ASCU,"Fyans Park Primary School VIC,Australia",-38.1537628,144.3268094,1,3220,OK,"establishment,point_of_interest,school"
259,ROOFTOP,"10 Kalmia St, Frankston VIC 3199, Australia",ChIJ2Yu-QNAK1moRAelCq9rKRmE,"Frankston Heights Primary School VIC,Australia",-38.1620052,145.1466011,1,3199,OK,"establishment,point_of_interest,school"
260,GEOMETRIC_CENTER,"Prospect Hill Rd, Narre Warren VIC 3805, Australia",ChIJnXhfeEUX1moRxKenBYIIL9c,"Fountain Gate Primary School VIC,Australia",-38.009285,145.2945462,1,3805,OK,"establishment,point_of_interest,school"
261,ROOFTOP,"400B Forest St, Wendouree VIC 3355, Australia",ChIJbcoJlg1E0WoR7Pn3PHJsSNg,"Forest Street Primary School VIC,Australia",-37.523257,143.835583,1,3355,OK,"establishment,point_of_interest,school"
262,ROOFTOP,"17 Argyle St, West Footscray VIC 3012, Australia",ChIJxz9-uP1d1moRoRab0SsZLoQ,"Footscray West Primary School VIC,Australia",-37.794914,144.876049,1,3012,OK,"establishment,point_of_interest,school"
263,ROOFTOP,"10 Hyde St, Footscray VIC 3011, Australia",ChIJE8D83otd1moRkHB_ptvQb_w,"Footscray City Primary School VIC,Australia",-37.806008,144.899408,1,3011,OK,"establishment,point_of_interest,school"
264,GEOMETRIC_CENTER,"Mt Alexander Rd & Padman Ln, Flemington VIC 3031, Australia",ChIJreCX0-Nc1moRdNY8sjTHs1s,"Flemington Primary School VIC,Australia",-37.7806295,144.9341068,1,3031,OK,"establishment,point_of_interest,school"
265,GEOMETRIC_CENTER,"Fergie St, Fitzroy North VIC 3068, Australia",ChIJV1U1PxVD1moR7WXiJgjz_38,"Fitzroy North Primary School VIC,Australia",-37.785165,144.983997,2,3068,OK,"establishment,point_of_interest,school"
266,ROOFTOP,"40 Lorne St, Fawkner VIC 3060, Australia",ChIJ6Wc23y5F1moR1sLJAj1VIIA,"Fawkner Primary School VIC,Australia",-37.7149987,144.9742368,1,3060,OK,"establishment,point_of_interest,school"
267,GEOMETRIC_CENTER,"Manuka Dr, Ferntree Gully VIC 3156, Australia",ChIJi9eWgmQ81moRM7NdTde3kcw,"Fairhills Primary School VIC,Australia",-37.8695063,145.2645426,1,3156,OK,"establishment,point_of_interest,school"
268,ROOFTOP,"2157 Great Alpine Rd, Everton VIC 3678, Australia",ChIJ348laUTHJmsRFnva7-lxtsI,"Everton Primary School VIC,Australia",-36.435414,146.544748,1,3678,OK,"establishment,point_of_interest,school"
269,ROOFTOP,"112 Keilor Rd, Essendon North VIC 3041, Australia",ChIJ9d7sKXdc1moRkVgHN05SZTY,"Essendon North Primary School VIC,Australia",-37.7401326,144.9037266,1,3041,OK,"establishment,point_of_interest,school"
270,GEOMETRIC_CENTER,"Howard St, Epsom VIC 3551, Australia",ChIJwRBrR35Y12oRZexivjife5E,"Epsom Primary School VIC,Australia",-36.7050261,144.3127103,1,3551,OK,"establishment,point_of_interest,school"
271,ROOFTOP,"149 Patons Rd, Axe Creek VIC 3551, Australia",ChIJbWKhflNc12oRl4ChK1YBZO4,"Eppalock Primary School VIC,Australia",-36.8417958,144.3875804,1,3551,OK,"establishment,point_of_interest,school"
272,ROOFTOP,"4-10 Heroes Ave, Emerald VIC 3782, Australia",ChIJd5OLPiEh1moRYDfyYSpxjog,"Emerald Primary School VIC,Australia",-37.933614,145.4421567,1,3782,OK,"establishment,point_of_interest,school"
273,GEOMETRIC_CENTER,"Wattletree Rd, Eltham North VIC 3095, Australia",ChIJT6u-WjA21moRLubAB43Dz9g,"Eltham North Primary School VIC,Australia",-37.699984,145.150755,1,3095,OK,"establishment,point_of_interest,school"
274,ROOFTOP,"44 Murphy St, Brighton VIC 3186 Phone, Australia",ChIJDcWmvuRo1moR5SOPVVvBFU4,"Elsternwick Primary School VIC,Australia",-37.89214,144.9975227,1,3186 Phone,OK,"establishment,point_of_interest,school"
275,ROOFTOP,"26 Wright St, Elphinstone VIC 3448, Australia",ChIJV-oUae0712oRpH6sH2hTLNI,"Elphinstone Primary School VIC,Australia",-37.1050185,144.332765,1,3448,OK,"establishment,point_of_interest,school"
276,ROOFTOP,"832 Edi-Cheshunt Rd, Edi Upper VIC 3678, Australia",ChIJ9TK2nx3xJmsRR-lIcWoaews,"Edi Upper Primary School VIC,Australia",-36.70614,146.4490921,1,3678,OK,"establishment,point_of_interest,school"
277,GEOMETRIC_CENTER,"Darcey Street, Eaglehawk VIC 3556, Australia",ChIJVXYYgb1X12oRn-2idLo_AaE,"Eaglehawk North Primary School VIC,Australia",-36.707409,144.23727,1,3556,OK,"establishment,point_of_interest,school"
278,ROOFTOP,"93 Victoria Valley Rd, Dunkeld VIC 3294, Australia",ChIJG2SAqzilzWoRneIOdrn_CuM,"Dunkeld Consolidated School VIC,Australia",-37.6393689,142.3399541,1,3294,OK,"establishment,point_of_interest,school"
279,ROOFTOP,"75 Doctors Gully Rd, Doreen VIC 3754, Australia",ChIJN-bSvU811moRw0KF4KL1H80,"Doreen Primary School VIC,Australia",-37.606103,145.146234,1,3754,OK,"establishment,point_of_interest,school"
280,GEOMETRIC_CENTER,"Baldock St, Dookie VIC 3646, Australia",ChIJAUspH01vJ2sRUc-R0FEebUU,"Dookie Primary School VIC,Australia",-36.331411,145.6825241,1,3646,OK,"establishment,point_of_interest,school"
281,GEOMETRIC_CENTER,"Elata St, Donvale VIC 3111, Australia",ChIJNUy6HeU41moRXVjXTl02_kA,"Donvale Primary School VIC,Australia",-37.8005095,145.1744664,1,3111,OK,"establishment,point_of_interest,school"
282,GEOMETRIC_CENTER,"2-12 Council Street, VIC 3108, Australia",ChIJ7S9q_GRH1moRUSnE-MpXddU,"Doncaster Primary School VIC,Australia",-37.7867452,145.1295735,1,3108,OK,"establishment,point_of_interest,school"
283,ROOFTOP,"20 Sandhurst Ave, Doncaster East VIC 3109, Australia",ChIJ2yApWn041moRjVgREqx62jM,"Doncaster Gardens Primary School VIC,Australia",-37.782157,145.1480785,1,3109,OK,"establishment,point_of_interest,school"
284,GEOMETRIC_CENTER,"Colchester Dr, Doncaster East VIC 3109, Australia",ChIJ48EN8fU41moR9DoiC2cHm5I,"Donburn Primary School VIC,Australia",-37.7876683,145.166216,1,3109,OK,"establishment,point_of_interest,school"
285,GEOMETRIC_CENTER,"Old Don Rd, Don Valley VIC 3139, Australia",ChIJ31gGTWfTKWsRc2fSI7Hv9O4,"Don Valley Primary School VIC,Australia",-37.7604822,145.5872718,1,3139,OK,"establishment,point_of_interest,school"
286,GEOMETRIC_CENTER,"Plumpton Rd, Diggers Rest VIC 3427, Australia",ChIJQRiXj8P21moRHoaM7hL41dw,"Diggers Rest Primary School VIC,Australia",-37.6226527,144.7090509,1,3427,OK,"establishment,point_of_interest,school"
287,ROOFTOP,"17 Clyde St, Diamond Creek VIC 3089, Australia",ChIJCeNgOAg21moRD2aQ2TPr3N0,"Diamond Creek Primary School VIC,Australia",-37.6717638,145.1519697,1,3089,OK,"establishment,point_of_interest,school"
288,ROOFTOP,"605 Langham Rd, Dhurringile VIC 3610, Australia",ChIJEf7nV-Zl2GoRVhTzHZTvw4g,"Dhurringile Primary School VIC,Australia",-36.543389,145.239951,1,3610,OK,"establishment,point_of_interest,school"
289,ROOFTOP,"40 Lennon Pkwy, Derrimut VIC 3030, Australia",ChIJt2bY25KK1moRjT0JEGnjheQ,"Derrimut Primary School VIC,Australia",-37.789403,144.7640861,1,3030,OK,"establishment,point_of_interest,school"
290,ROOFTOP,"110-120 Greenhalghs Rd, Delacombe VIC 3356, Australia",ChIJ10Wmnqxc0WoRuD3nrY3xhtA,"Delacombe Primary School VIC,Australia",-37.584823,143.818005,1,3356,OK,"establishment,point_of_interest,school"
291,GEOMETRIC_CENTER,"Quinn St, Deer Park VIC 3023, Australia",ChIJVb-T_beK1moRQeoNDAQ_3Pg,"Deer Park West Primary School VIC,Australia",-37.7715415,144.764684,1,3023,OK,"establishment,point_of_interest,school"
292,ROOFTOP,"4364 Kiewa Valley Highway, Dederang VIC 3691, Australia",ChIJpwvkrXEEJGsRVmu5Sp1vhX8,"Dederang Primary School VIC,Australia",-36.4711746,147.0177397,2,3691,OK,"establishment,point_of_interest,school"
293,ROOFTOP,"102 Vincent St, Daylesford VIC 3460, Australia",ChIJQVIKhL3T1moRb_X9e6Fl_rU,"Daylesford Primary School VIC,Australia",-37.345127,144.1414982,1,3460,OK,"establishment,point_of_interest,school"
294,ROOFTOP,"21 Nelson St, Bacchus Marsh VIC 3340, Australia",ChIJ4352WVSV1moReOshHIs7YIc,"Darley Primary School VIC,Australia",-37.6555422,144.4373917,1,3340,OK,"establishment,point_of_interest,school"
295,ROOFTOP,"32 Birdwood Ave, Dandenong VIC 3175, Australia",ChIJ483Jm3MU1moRPK37os5eid0,"Dandenong West Primary School VIC,Australia",-37.98087,145.200567,1,3175,OK,"establishment,point_of_interest,school"
296,ROOFTOP,"2 Ridge Rd, Dookie College VIC 3647, Australia",ChIJp12D1K9vJ2sR17uwdIc-API,"Currawa Primary School VIC,Australia",-36.38237,145.70286,1,3647,OK,"establishment,point_of_interest,university"
297,ROOFTOP,"99 Macs St, Creswick VIC 3363, Australia",ChIJZUONLsc50WoRV-2ST-ip9Tw,"Creswick North Primary School VIC,Australia",-37.4087591,143.8910215,1,3363,OK,"establishment,point_of_interest,school"
298,ROOFTOP,"102 Hothlyn Dr, Craigieburn VIC 3064, Australia",ChIJvTwXX5JR1moRva56vaxB_sY,"Craigieburn South Primary School VIC,Australia",-37.6083982,144.9357328,1,3064,OK,"establishment,point_of_interest,school"
299,ROOFTOP,"87-91 Grand Blvd, Craigieburn VIC 3064, Australia",ChIJ_dFR7ztS1moRV5Sz9CRDTdc,"Craigieburn Primary School VIC,Australia",-37.5827885,144.9336305,1,3064,OK,"establishment,point_of_interest,school"
300,GEOMETRIC_CENTER,"1-11 Church St., Cowwarr VIC 3857, Australia",ChIJ-YzniTTaKGsR2v4rpBHdC9I,"Cowwarr Primary School VIC,Australia",-38.0135604,146.6985664,1,3857,OK,"establishment,point_of_interest,school"
301,GEOMETRIC_CENTER,"Katamatite-Shepparton Rd, Congupna VIC 3633, Australia",ChIJBQj6_rad2GoR4JdgzB0sImE,"Congupna Primary School VIC,Australia",-36.2998814,145.4339945,1,3633,OK,"establishment,point_of_interest,school"
302,GEOMETRIC_CENTER,"Cromwell St & McCutcheon Way, Abbotsford VIC 3067, Australia",ChIJqT0RdOJC1moR7JmfzJfZnN0,"Collingwood College VIC,Australia",-37.80322,144.9900517,1,3067,OK,"establishment,point_of_interest,school,university"
303,ROOFTOP,"12 Ligar St, Colac VIC 3250, Australia",ChIJQc7SYW4P02oRT1DVH51mZfo,"Colac West Primary School VIC,Australia",-38.3359154,143.5786311,2,3250,OK,"establishment,point_of_interest,school"
304,ROOFTOP,"65 Murray St E, Colac VIC 3250, Australia",ChIJZVRdixgP02oRuFym07g--P8,"Colac Primary School VIC,Australia",-38.3372669,143.5986625,1,3250,OK,"establishment,point_of_interest,school"
305,ROOFTOP,"86 Bennetts Ln, Coimadai VIC 3340, Australia",ChIJLQxVobTr1moRoNvAKAYiw3w,"Coimadai Primary School VIC,Australia",-37.613891,144.479034,1,3340,OK,"establishment,point_of_interest,school"
306,ROOFTOP,"180 O'Hea Street, Coburg VIC 3058, Australia",ChIJpR6xbPEXKWsRNjbJoukBnCU,"Coburg North Primary School VIC,Australia",-37.7357364,144.951892,1,3058,OK,"establishment,point_of_interest,school"
307,ROOFTOP,"80-118 Jetty Rd, Clifton Springs VIC 3222, Australia",ChIJUb4mhxA71GoRs3NZScdCIog,"Clifton Springs Primary School VIC,Australia",-38.1655609,144.5529376,2,3222,OK,"establishment,point_of_interest,school"
308,ROOFTOP,"185 Gold St, Clifton Hill VIC 3068, Australia",ChIJA8FptxBD1moRoqwwX-tV_qI,"Clifton Hill Primary School VIC,Australia",-37.792509,144.989352,1,3068,OK,"establishment,point_of_interest,school"
309,GEOMETRIC_CENTER,"Coleman Parade, Churchill VIC 3842, Australia",ChIJH9zYPs0SKWsRbqKicLtJgLU,"Churchill Primary School VIC,Australia",-38.3111782,146.4144179,1,3842,OK,"establishment,point_of_interest,school"
310,GEOMETRIC_CENTER,"Coolabah Dr, Churchill VIC 3842, Australia",ChIJUUzBINASKWsRJVn-G7hGaB8,"Churchill North Primary School VIC,Australia",-38.3049916,146.4173913,1,3842,OK,"establishment,point_of_interest,school"
311,ROOFTOP,"1409 Eltham-Yarra Glen Rd, Christmas Hills VIC 3775, Australia",ChIJAbeMpP0y1moRFGvM9X-YxN4,"Christmas Hills Primary School VIC,Australia",-37.653475,145.3042891,1,3775,OK,"establishment,point_of_interest,school"
312,ROOFTOP,"313A Pakington St, Newtown VIC 3220, Australia",ChIJDas6r_UT1GoRQAmiQbGwXXs,"Chilwell Primary School VIC,Australia",-38.1548571,144.344938,1,3220,OK,"establishment,point_of_interest,school"
313,ROOFTOP,"1 Hunter St, Chewton VIC 3451, Australia",ChIJ1ZnNZwo612oR7dPNw-DMxWU,"Chewton Primary School VIC,Australia",-37.0818965,144.2605539,1,3451,OK,"establishment,point_of_interest,school"
314,ROOFTOP,"44 Silver St, Cheltenham VIC 3192, Australia",ChIJ70ZqUTls1moRbfReewOg_T8,"Cheltenham East Primary School VIC,Australia",-37.965193,145.068198,1,3192,OK,"establishment,point_of_interest,school"
315,GEOMETRIC_CENTER,"Davies Street, Charlton VIC 3525, Australia",ChIJh2kuLAWH2moRMt4C5rEiDtg,"Charlton College VIC,Australia",-36.2705458,143.3589389,2,3525,OK,"establishment,point_of_interest,school"
316,ROOFTOP,"235 Kingsbury Dr, Macleod VIC 3085, Australia",ChIJW5o_-g1G1moRbAqYWAofM-g,"Charles La Trobe P-12 College VIC,Australia",-37.7288696,145.0589243,1,3085,OK,"establishment,point_of_interest,school"
317,ROOFTOP,"5-19 Cochrane Ave, Keysborough VIC 3173, Australia",ChIJS3boA3QT1moRJrEmH0BrvYo,"Chandler Park Primary School VIC,Australia",-37.9919531,145.1800153,1,3173,OK,"establishment,point_of_interest,school"
318,ROOFTOP,"28 Primrose Hill Cl, Endeavour Hills VIC 3802, Australia",ChIJe_bBgowW1moR6-gbrVIBPc4,"Chalcot Lodge Primary School VIC,Australia",-37.969782,145.2482916,1,3802,OK,"establishment,point_of_interest,school"
319,ROOFTOP,"605 Barrabool Rd, Ceres VIC 3221, Australia",ChIJt2oalKgS1GoRZKsrpxMWEY8,"Ceres Primary School VIC,Australia",-38.1736355,144.2668603,1,3221,OK,"establishment,point_of_interest,school"
320,GEOMETRIC_CENTER,"Bundeera Rd, Caulfield South VIC 3162, Australia",ChIJDatuPHRp1moRLxBRtxWuRBE,"Caulfield South Primary School VIC,Australia",-37.8956385,145.0303474,2,3162,OK,"establishment,point_of_interest,school"
321,GEOMETRIC_CENTER,"Laura Rd, Knoxfield VIC 3180, Australia",ChIJe3hoocs91moRiGs2ViZstQg,"Carrington Primary School VIC,Australia",-37.891757,145.246467,1,3180,OK,"establishment,point_of_interest,school"
322,ROOFTOP,"60 Lee St, Carlton North VIC 3054, Australia",ChIJJflo9SVD1moRBjMlnr3ali4,"Carlton North Primary School VIC,Australia",-37.791086,144.9729091,1,3054,OK,"establishment,point_of_interest,school"
323,ROOFTOP,"215 Rathdowne St, Carlton VIC 3053, Australia",ChIJR-hV1ClD1moRmdsU2BEjDjw,"Carlton Gardens Primary School VIC,Australia",-37.8019437,144.9693606,1,3053,OK,"establishment,point_of_interest,school"
324,ROOFTOP,"Cape Clear Primary School, 1539 Pitfield-Scarsdale Rd, Cape Clear VIC 3351, Australia",ChIJj7ekNifb02oRkrn6e7Uuo-E,"Cape Clear Primary School VIC,Australia",-37.7919983,143.6079207,1,3351,OK,street_address
325,GEOMETRIC_CENTER,"Molesworth St, Canterbury VIC 3126, Australia",ChIJGUEdGwZB1moRedv2sM3wc3Y,"Canterbury Primary School VIC,Australia",-37.8312148,145.0841725,1,3126,OK,"establishment,point_of_interest,school"
326,ROOFTOP,"301 Otway St S, Ballarat East VIC 3350, Australia",ChIJlZg99QdF0WoRdK47Te3xxaI,"Canadian Lead Primary School VIC,Australia",-37.5728596,143.8763644,1,3350,OK,"establishment,point_of_interest,school"
327,GEOMETRIC_CENTER,"Laurel Cres, Campbellfield VIC 3061, Australia",ChIJG0uI4fxP1moR2wKrk9N6xy0,"Campbellfield Heights Primary School VIC,Australia",-37.6750029,144.9660813,1,3061,OK,"establishment,point_of_interest,school"
328,GEOMETRIC_CENTER,"Gaol Road, Bendigo VIC 3550, Australia",ChIJJdj1iUGwLwARY0sEkm_XYfU,"Camp Hill Primary School VIC,Australia",-36.7558026,144.2785443,1,3550,OK,"establishment,point_of_interest,school"
329,ROOFTOP,"29 Carruthers Dr, Hoppers Crossing VIC 3029, Australia",ChIJ0cTvAGqP1moR7ArXoyCG7a4,"Cambridge Primary School VIC,Australia",-37.8673895,144.6756954,1,3029,OK,"establishment,point_of_interest,school"
330,ROOFTOP,"2 Thompson St, Brown Hill VIC 3350, Australia",ChIJewdsspRF0WoRVok5nKvBr6k,"Caledonian Primary School VIC,Australia",-37.5555092,143.8944994,1,3350,OK,"establishment,point_of_interest,school"
331,ROOFTOP,"49 Carmody Dr, Cairnlea VIC 3023, Australia",ChIJR90VAfdf1moRZTX74diMKhU,"Cairnlea Park Primary School VIC,Australia",-37.7590617,144.7881398,1,3023,OK,"establishment,point_of_interest,school"
332,GEOMETRIC_CENTER,"Corner Blackburn and Highbury Road, Burwood East VIC 3151, Australia",ChIJxYeBAp0_1moRXUXZ0hfvLFM,"Burwood East Primary School VIC,Australia",-37.8582842,145.1513393,2,3151,OK,"establishment,point_of_interest,school"
333,GEOMETRIC_CENTER,"Longwarry - Nar Nar Goon Rd, Bunyip VIC 3815, Australia",ChIJyRY0KjXoKWsRdERNc4Gba3o,"Bunyip Primary School VIC,Australia",-38.0996021,145.7126966,1,3815,OK,"establishment,point_of_interest,school"
334,GEOMETRIC_CENTER,"Sale Maffra Rd, Bundalaguah VIC 3851, Australia",ChIJ1dMy94IxL2sRyOmLJfMeQEw,"Bundalaguah Primary School VIC,Australia",-38.0287047,147.0140544,1,3851,OK,"establishment,point_of_interest,school"
335,ROOFTOP,"Bullarto Primary School, 131 S Bullarto Rd, Bullarto VIC 3461, Australia",ChIJExpQWErQ1moREHySbAx85b4,"Bullarto Primary School VIC,Australia",-37.4055172,144.2180161,1,3461,OK,street_address
336,ROOFTOP,"4 Dalley St, Buchan VIC 3885, Australia",ChIJRzMmGy0uJWsRwGfZbIQ_wHY,"Buchan Primary School VIC,Australia",-37.4975996,148.18058,1,3885,OK,"establishment,point_of_interest,school"
337,GEOMETRIC_CENTER,"South Daly Street, Brunswick West VIC 3055, Australia",ChIJP-cs38Bc1moRutEXxcWKPhQ,"Brunswick South West Primary School VIC,Australia",-37.770618,144.943472,2,3055,OK,"establishment,point_of_interest,school"
338,ROOFTOP,"56 Brunswick Rd, Brunswick East VIC 3057, Australia",ChIJm_K6HThD1moRSQnCyTDUTgw,"Brunswick South Primary School VIC,Australia",-37.7786545,144.972978,2,3057,OK,"establishment,point_of_interest,school"
339,GEOMETRIC_CENTER,"Pearson St, Brunswick West VIC 3055, Australia",ChIJ2Rw-Ca9c1moReDM4iJkWvPs,"Brunswick North Primary School VIC,Australia",-37.759786,144.9505763,2,3055,OK,"establishment,point_of_interest,school"
340,ROOFTOP,"195A Stewart St, Brunswick East VIC 3057, Australia",ChIJAbWm5V5D1moRtYeCIXCnx5U,"Brunswick East Primary School VIC,Australia",-37.7648834,144.9795988,2,3057,OK,"establishment,point_of_interest,school"
341,ROOFTOP,"34 Eldon St, Bridgewater on Loddon VIC 3516, Australia",ChIJ0bCM7FCo0GoRZB12qT5VKKA,"Bridgewater Primary School VIC,Australia",-36.6030415,143.9459486,1,3516,OK,"establishment,point_of_interest,school"
342,ROOFTOP,"2 Church St, Briagolong VIC 3860, Australia",ChIJy9yjsjJPL2sRX1J0xj5Pnhg,"Briagolong Primary School VIC,Australia",-37.8425914,147.0675989,1,3860,OK,"establishment,point_of_interest,school"
343,GEOMETRIC_CENTER,"Bemersyde Dr, Berwick VIC 3806, Australia",ChIJp5fW_Eca1moR20Qy3Om0QZ8,"Brentwood Park Primary School VIC,Australia",-38.052378,145.3474439,1,3806,OK,"establishment,point_of_interest,school"
344,ROOFTOP,"2 Monroe St, Branxholme VIC 3302, Australia",ChIJ2V9QvNnpzGoREnd-X9a9Trc,"Branxholme-Wallacedale Community School VIC,Australia",-37.8564058,141.7987374,1,3302,OK,"establishment,point_of_interest,school"
345,ROOFTOP,"1-5 Ninevah Cres, Wheelers Hill VIC 3150, Australia",ChIJqSbW3HoV1moRG4UZFeg0s5c,"Brandon Park Primary School VIC,Australia",-37.9131546,145.1731144,1,3150,OK,"establishment,point_of_interest,school"
346,ROOFTOP,"51 Tarwin St, Boolarra VIC 3870, Australia",ChIJtceAnKJ3KWsREP7bczr3t0E,"Boolarra Primary School VIC,Australia",-38.3830782,146.2690397,1,3870,OK,"establishment,point_of_interest,school"
347,ROOFTOP,"183 Whitehorse Rd, Blackburn VIC 3130, Australia",ChIJI_S4ZrY41moRVm2SlMgaYXs,"Blackburn Primary School VIC,Australia",-37.8175871,145.1572134,1,3130,OK,"establishment,point_of_interest,school"
348,GEOMETRIC_CENTER,"Florence St, Blackburn VIC 3130, Australia",ChIJn75dmTM_1moR_GEhEQzXudU,"Blackburn Lake Primary School VIC,Australia",-37.8270212,145.1656132,1,3130,OK,"establishment,point_of_interest,school"
349,ROOFTOP,"71 Arkaringa Cres, Black Rock VIC 3193, Australia",ChIJJZmdC1Bu1moRuCO16KtKAc4,"Black Rock Primary School VIC,Australia",-37.9682695,145.0221239,1,3193,OK,"establishment,point_of_interest,school"
350,ROOFTOP,"601 Chisholm St, Black Hill VIC 3350, Australia",ChIJ4SPva7RF0WoRn4wqPeyxCSE,"Black Hill Primary School VIC,Australia",-37.549766,143.869486,1,3350,OK,"establishment,point_of_interest,school"
351,ROOFTOP,"58 Beal St, Birregurra VIC 3242, Australia",ChIJgQ9UXK9102oR3ZKJzPsk8wI,"Birregurra Primary School VIC,Australia",-38.3405323,143.786674,1,3242,OK,"establishment,point_of_interest,school"
352,ROOFTOP,"8-26 Heyington Ave, Doncaster VIC 3108, Australia",ChIJV2WmNT9H1moR_A3U0xTqRRE,"Birralee Primary School VIC,Australia",-37.7932458,145.1132906,1,3108,OK,"establishment,point_of_interest,school"
353,GEOMETRIC_CENTER,"Francis Cres, Mount Evelyn VIC 3796, Australia",ChIJKQW8mh0v1moR4FejtQlJdHE,"Birmingham Primary School VIC,Australia",-37.7794782,145.3685433,1,3796,OK,"establishment,point_of_interest,school"
354,ROOFTOP,"118 Hayrick Ln, Mooroolbark VIC 3138, Australia",ChIJn-tEddov1moReyICRbRpDY0,"Bimbadeen Heights Primary School VIC,Australia",-37.773971,145.321867,1,3138,OK,"establishment,point_of_interest,school"
355,ROOFTOP,"5644 Calder Hwy, Big Hill VIC 3555, Australia",ChIJ37x-8B5Q12oRu8ubgjkWELo,"Big Hill Primary School VIC,Australia",-36.830373,144.241609,1,3555,OK,"establishment,point_of_interest,school"
356,ROOFTOP,"2 Cassowary St, Doncaster East VIC 3109, Australia",ChIJdcWwyJI41moR0ePmhQfhEco,"Beverley Hills Primary School VIC,Australia",-37.796566,145.1596124,1,3109,OK,"establishment,point_of_interest,school"
357,ROOFTOP,"139-145 Mansfield St, Berwick VIC 3806, Australia",ChIJTw7Epx8a1moRf2vrmNAkc60,"Berwick Lodge Primary School VIC,Australia",-38.0314501,145.326679,1,3806,OK,"establishment,point_of_interest,school"
358,ROOFTOP,"261 Racecourse Rd, Mornington VIC 3931, Australia",ChIJdfCAVAXc1WoR3XwO-VVZAoY,"Benton Junior College VIC,Australia",-38.245962,145.060199,1,3931,OK,"establishment,point_of_interest,school"
359,ROOFTOP,"23 Brewer Rd, Bentleigh VIC 3204, Australia",ChIJ1cNNxTdp1moRJBMYyEH7TKs,"Bentleigh West Primary School VIC,Australia",-37.9206464,145.0260813,1,3204,OK,"establishment,point_of_interest,school"
360,GEOMETRIC_CENTER,"Old Violet St & Webster Street, Bendigo VIC 3550, Australia",ChIJtQmq7flZ12oRZQy7ssuiFj8,"Bendigo Primary School VIC,Australia",-36.7572755,144.264857,1,3550,OK,"establishment,point_of_interest,school"
361,ROOFTOP,"51 Mt Pleasant Rd, Belmont VIC 3216, Australia",ChIJneZOjoMT1GoRdEVHjVZW1No,"Belmont Primary School VIC,Australia",-38.171071,144.341941,2,3216,OK,"establishment,point_of_interest,school"
362,ROOFTOP,"20 Highview Rd, Balwyn North VIC 3104, Australia",ChIJ2e0r4cVG1moRudMTuA3x3eI,"Belle Vue Primary School VIC,Australia",-37.781879,145.079125,1,3104,OK,"establishment,point_of_interest,school"
363,GEOMETRIC_CENTER,"Morell St, Glenroy VIC 3046, Australia",ChIJO6Xu8sJa1moRVwrApsh8rtg,"Belle Vue Park Primary School VIC,Australia",-37.7007933,144.9426261,1,3046,OK,"establishment,point_of_interest,school"
364,ROOFTOP,"78A Oakover Rd, Preston VIC 3072, Australia",ChIJmXui6pJE1moRb1YWL034NsY,"Bell Primary School VIC,Australia",-37.7474907,144.9908094,2,3072,OK,"establishment,point_of_interest,school"
365,GEOMETRIC_CENTER,"Lang St, Beeac VIC 3251, Australia",ChIJDUh6WaWm02oRoGt7fqm-q4o,"Beeac Primary School VIC,Australia",-38.1941992,143.6441612,1,3251,OK,"establishment,point_of_interest,school"
366,GEOMETRIC_CENTER,"Phyllis St, Bayswater VIC 3153, Australia",ChIJqWgdB4w71moRAV1yEnoUtso,"Bayswater West Primary School VIC,Australia",-37.8493048,145.253015,1,3153,OK,"establishment,point_of_interest,school"
367,GEOMETRIC_CENTER,"Birch St, Bayswater VIC 3153, Australia",ChIJ5VmHeJA71moR3XG_zgj9g6A,"Bayswater Primary School VIC,Australia",-37.8433137,145.2593459,1,3153,OK,"establishment,point_of_interest,school"
368,GEOMETRIC_CENTER,"3730 Ballarto Rd., Bayles VIC 3981, Australia",ChIJU3XLHzHjKWsRafUVSRsyxDg,"Bayles Regional Primary School VIC,Australia",-38.1763329,145.5658838,1,3981,OK,"establishment,point_of_interest,school"
369,ROOFTOP,"50 Banyule Rd, Rosanna VIC 3084, Australia",ChIJU3ky3UZG1moRYHyS552s-tk,"Banyule Primary School VIC,Australia",-37.743075,145.0779385,1,3084,OK,"establishment,point_of_interest,school"
370,GEOMETRIC_CENTER,"Balwyn Rd, Balwyn VIC 3103, Australia",ChIJg12DVztB1moRElCKmd8r-pY,"Balwyn Primary School VIC,Australia",-37.8141089,145.0812997,1,3103,OK,"establishment,point_of_interest,school"
371,GEOMETRIC_CENTER,"Buchanan Ave, Melbourne VIC 3104, Australia",ChIJN8b1iTNB1moRhUo4TCg5ODI,"Balwyn North Primary School VIC,Australia",-37.7960551,145.07664,1,3104,OK,"establishment,point_of_interest,school"
372,ROOFTOP,"4 School Rd, Balliang East VIC 3340, Australia",ChIJa2juSbii1moRA0pkW1bZI3M,"Balliang East Primary School VIC,Australia",-37.7951024,144.4146301,1,3340,OK,"establishment,point_of_interest,school"
373,ROOFTOP,"8-14 Duncan St, Ballan VIC 3342, Australia",ChIJ1Y12OLm31moRHstRuIRaoUY,"Ballan Primary School VIC,Australia",-37.6016864,144.231357,1,3342,OK,"establishment,point_of_interest,school"
374,ROOFTOP,"Baimbridge College, 85 Stephen St, Hamilton VIC 3300, Australia",ChIJz7R5cwf-zGoR3mVp3nAvBys,"Baimbridge College VIC,Australia",-37.7333426,142.0146461,1,3300,OK,street_address
375,ROOFTOP,"81 Baden Powell Dr, Tarneit VIC 3029, Australia",ChIJn8VLeM2O1moRgfWPI74oFNs,"Baden Powell P-9 College VIC,Australia",-37.8425448,144.6951507,1,3029,OK,"establishment,point_of_interest,university"
376,ROOFTOP,"54 Lerderderg St, Bacchus Marsh VIC 3340, Australia",ChIJiw81o2eV1moRYg3ceLX314A,"Bacchus Marsh Primary School VIC,Australia",-37.6729993,144.4427856,1,3340,OK,"establishment,point_of_interest,school"
377,ROOFTOP,"11 Clarendon St, Avondale Heights VIC 3034, Australia",ChIJpVptPGVe1moR9Oj6I5oQtWI,"Avondale Primary School VIC,Australia",-37.7660469,144.8612346,1,3034,OK,"establishment,point_of_interest,school"
378,ROOFTOP,"118 Barnett St, Avoca VIC 3467, Australia",ChIJKfvvbFYB0WoRFF0G69T8M-U,"Avoca Primary School VIC,Australia",-37.084258,143.47556,1,3467,OK,"establishment,point_of_interest,school"
379,ROOFTOP,"419 Tooronga Rd, Hawthorn East VIC 3123, Australia",ChIJc5-PzyFC1moRlpoKkHq1d9o,"Auburn South Primary School VIC,Australia",-37.8395225,145.0455568,1,3123,OK,"establishment,point_of_interest,school"
380,GEOMETRIC_CENTER,"Rathmines Rd, Melbourne VIC 3123, Australia",ChIJf6hIXn5B1moReagYgkE3XF0,"Auburn Primary School VIC,Australia",-37.8196025,145.0505434,1,3123,OK,"establishment,point_of_interest,school"
381,ROOFTOP,"96 Kearney Dr, Aspendale Gardens VIC 3195, Australia",ChIJh21-mGdt1moRFK_MUBqveI8,"Aspendale Gardens Primary School VIC,Australia",-38.0225235,145.1167494,1,3195,OK,"establishment,point_of_interest,school"
382,GEOMETRIC_CENTER,"Bank St, Melbourne VIC 3032, Australia",ChIJy3uQ_fpc1moReUc3oUvUR6U,"Ascot Vale Primary School VIC,Australia",-37.7746947,144.9259635,1,3032,OK,"establishment,point_of_interest,school"
383,ROOFTOP,"900 Arthurs Creek Rd, Arthurs Creek VIC 3099, Australia",ChIJ8xlPQgvL12oRh-43Q1x5ub8,"Arthurs Creek Primary School VIC,Australia",-37.578921,145.202585,1,3099,OK,"establishment,point_of_interest,school"
384,GEOMETRIC_CENTER,"Densham Rd, Armadale VIC 3143, Australia",ChIJ-z7yRdhp1moRTqODMCfv6e8,"Armadale Primary School VIC,Australia",-37.8521572,145.0168908,1,3143,OK,"establishment,point_of_interest,school"
385,ROOFTOP,"580 Turnbull Rd, Ardmona VIC 3629, Australia",ChIJG_FreJ6I2GoRo9S3ed-bAgw,"Ardmona Primary School VIC,Australia",-36.385371,145.312171,1,3629,OK,"establishment,point_of_interest,school"
386,GEOMETRIC_CENTER,"Ralph St, Sunshine VIC 3020, Australia",ChIJj6-ebhFg1moRqW-hdeA7xug,"Ardeer South Primary School VIC,Australia",-37.7884812,144.8003471,1,3020,OK,"establishment,point_of_interest,school"
387,GEOMETRIC_CENTER,"Knee Bone St, Ararat VIC 3377, Australia",ChIJLc8ks8vx0WoRXB9rKEaSEUw,"Ararat West Primary School VIC,Australia",-37.277583,142.9206008,1,3377,OK,"establishment,point_of_interest,school"
388,ROOFTOP,"Ararat Primary School 800, 70-78 Moore St, Ararat VIC 3377, Australia",ChIJAawlGuvx0WoRMdSE11C4OGs,"Ararat Primary School VIC,Australia",-37.2862624,142.9376275,1,3377,OK,"establishment,point_of_interest,school"
389,GEOMETRIC_CENTER,"Civic Dr, Melbourne VIC 3088, Australia",ChIJddnnRLFJ1moR3wBEiEXPhBQ,"Apollo Parkways Primary School VIC,Australia",-37.6875952,145.1096088,1,3088,OK,"establishment,point_of_interest,school"
390,ROOFTOP,"36-42 Drysdale Rd, Warrandyte VIC 3113, Australia",ChIJtflJP0E31moRsmcobOxofqQ,"Andersons Creek Primary School VIC,Australia",-37.7489815,145.2079029,2,3113,OK,"establishment,point_of_interest,school"
391,ROOFTOP,"40 Wool Wool Rd, Alvie VIC 3249, Australia",ChIJtxKBWRkH02oRPhO3CrgeUWo,"Alvie Consolidated School VIC,Australia",-38.2411203,143.5026219,1,3249,OK,"establishment,point_of_interest,school"
392,ROOFTOP,"103A Grieve Parade, Altona VIC 3018, Australia",ChIJIUsn7yVi1moRojZaEzKlKPI,"Altona P-9 College VIC,Australia",-37.8615691,144.8174433,1,3018,OK,"establishment,point_of_interest,university"
393,GEOMETRIC_CENTER,"Yarralea St, Alphington VIC 3078, Australia",ChIJUehQxfVD1moR9sXMjU8syu4,"Alphington Primary School VIC,Australia",-37.7836181,145.032285,1,3078,OK,"establishment,point_of_interest,school"
394,ROOFTOP,"61 - 81 Adelaide St, Albion VIC 3020, Australia",ChIJ-_Lhotdf1moR7x8J_WnXHcM,"Albion Primary School VIC,Australia",-37.7775068,144.8196261,1,3020,OK,"establishment,point_of_interest,school"
395,ROOFTOP,"67-73 Furlong Rd, Sunshine North VIC 3020, Australia",ChIJL62sFbRf1moRQVEtiTUuXJY,"Albion North Primary School VIC,Australia",-37.7623644,144.8232844,1,3020,OK,"establishment,point_of_interest,school"
396,ROOFTOP,"72/77 Albany Dr, Mulgrave VIC 3170, Australia",ChIJhXovIBuhJwARGK4HlHiThrc,"Albany Rise Primary School VIC,Australia",-37.9282525,145.1724407,1,3170,OK,"establishment,point_of_interest,school"
397,ROOFTOP,"25 Dover St, Albanvale VIC 3021, Australia",ChIJRcHCbmb11moRhuBJNtZrwgM,"Albanvale Primary School VIC,Australia",-37.7444083,144.774297,1,3021,OK,"establishment,point_of_interest,school"
398,ROOFTOP,"86-100 Alamanda Blvd, Point Cook VIC 3030, Australia",ChIJr5R_TyuG1moRbuKB9s5I4Zo,"Alamanda K-9 College VIC,Australia",-37.908505,144.740511,2,3030,OK,"establishment,point_of_interest,school"
399,ROOFTOP,"20 Lithgow St, Abbotsford VIC 3067, Australia",ChIJ_SZbDfxC1moR2FFmYi1nDFQ,"Abbotsford Primary School VIC,Australia",-37.8090158,144.9989435,1,3067,OK,"establishment,point_of_interest,school"
